"Type","au_id_k","au_lname_s","au_lname_t","au_fname_s","au_fname_t","phone_s","phone_t","address_s","address_t","city_s","city_t","state_s","state_t","zip_s","zip_t","contract_s","contract_t"
"In1","000-37-5345","Molina","","Ellen","","395-1975058","","85 First Drive","","Louisville","","OK","","73115","","False",""
"In1","000-58-1168","Velazquez","","Ricardo","","544062-1012","","79 Second Way","","Jersey","","IL","","25241","","True",""
"In1","001-80-6776","Guzman","","Jaime","","268914-5910","","32 Rocky Hague Blvd.","","Atlanta","","IL","","28353","","False",""
"In1","002-72-3737","Hardin","","Lonnie","","5017592501","","86 First Way","","Newark","","AR","","16029","","False",""
"In1","002-86-9108","Erickson","","Tameka","","631838-9319","","176 Milton Road","","Las Vegas","","NM","","93880","","True",""
"In1","005-38-7479","Rogers","","Tyler","","255693-0176","","519 Green Oak Avenue","","Akron","","RI","","73188","","True",""
"In1","007-36-1515","Lane","","Wendell","","0771456959","","767 Old Boulevard","","Indianapolis","","HI","","41987","","True",""
"In1","008-11-7690","Finley","","Lynette","","1213354948","","320 White Fabien Blvd.","","Virginia Beach","","RI","","70873","","True",""
"In1","008-63-6447","Williamson","","Jose","","213194-0574","","680 Milton Freeway","","San Diego","","SC","","97379","","False",""
"In1","009-69-8518","Reid","","Billie","","390-783-5265","","70 Second Avenue","","Cleveland","","TN","","60863","","False",""
"In1","010-57-1054","Hawkins","","Walter","","848-611-0979","","94 Old Boulevard","","Philadelphia","","NV","","59150","","False",""
"In1","012-66-6624","Garza","","Sean","","451-498-4113","","25 Rocky Second Street","","Riverside","","IA","","74231","","True",""
"In1","013-21-2231","Shields","","Vanessa","","748-2858628","","668 Rocky Oak St.","","Virginia Beach","","MN","","17671","","True",""
"In1","013-73-7761","Gross","","Shane","","904-1491740","","86 Rocky Second St.","","Memphis","","UT","","79356","","True",""
"In1","013-84-9095","Pugh","","Randal","","795-349-6600","","363 East Green Cowley Blvd.","","Charlotte","","IA","","21513","","False",""
"In1","014-43-4180","Hart","","Darryl","","3185975466","","98 Green Cowley Blvd.","","Arlington","","NM","","07431","","True",""
"In1","014-85-1174","Humphrey","","Dominick","","9554339199","","633 First Street","","Des Moines","","IA","","48242","","True",""
"In1","017-50-7906","Johnston","","Oscar","","626-5425799","","43 Rocky Cowley Freeway","","Cleveland","","KS","","61983","","False",""
"In1","017-56-8782","Andersen","","Lori","","383833-2402","","19 South Cowley St.","","Anchorage","","NC","","63562","","True",""
"In1","018-51-2912","Munoz","","Ernest","","236-377-6028","","67 North Milton Parkway","","Bakersfield","","GA","","58703","","True",""
"In1","018-83-8089","Mc Bride","","Joel","","797088-4666","","906 Hague Street","","Tacoma","","NJ","","97080","","True",""
"In1","018-94-1985","Anderson","","Sara","","317398-3500","","19 Old St.","","Anchorage","","DE","","<NULL>","","True",""
"In1","019-08-5961","Calhoun","","Milton","","909-506-2596","","15 Hague Street","","St. Paul","","WI","","70473","","False",""
"In1","019-90-9401","Collier","","Ronnie","","042-838-1767","","20 South Fabien Freeway","","Kansas","","MN","","40474","","True",""
"In1","020-61-7103","Adkins","","Chandra","","204-4670110","","53 Green Milton Road","","Tucson","","RI","","23972","","False",""
"In1","020-83-4369","Winters","","Dewayne","","308365-2772","","72 Rocky Cowley Freeway","","Little Rock","","KY","","70439","","False",""
"In1","020-96-1904","Esparza","","Alyssa","","359-244-3837","","31 Old Drive","","Tulsa","","CT","","81873","","True",""
"In1","021-76-9037","Santos","","Roderick","","7189242138","","78 Oak Road","","Seattle","","WI","","47134","","True",""
"In1","022-01-3621","Watts","","Albert","","299894-3233","","55 Cowley Freeway","","San Antonio","","NV","","35212","","False",""
"In1","022-25-8469","Meadows","","Sherman","","419358-1121","","669 Rocky Milton Road","","Oklahoma","","KS","","83077","","True",""
"In1","023-09-7693","Pollard","","Alicia","","331-767-7368","","785 Rocky Fabien Parkway","","Mobile","","MO","","73603","","False",""
"In1","023-10-3472","Kirk","","Belinda","","742-7557286","","540 North New Drive","","Fremont","","IA","","73218","","False",""
"In1","026-52-7231","Cabrera","","Monica","","421314-4742","","732 White Cowley Way","","Fresno","","UT","","67756","","False",""
"In1","027-48-0104","Beasley","","Moses","","421-214-8259","","81 North Old Street","","Akron","","NM","","43429","","False",""
"In1","028-74-6874","Robertson","","Sheila","","109-2454332","","44 South Second Boulevard","","Las Vegas","","TX","","22814","","False",""
"In1","029-45-9479","Middleton","","Salvatore","","3830075612","","267 North Cowley Street","","Norfolk","","IL","","85657","","False",""
"In1","029-81-7687","Stephenson","","Karin","","301-4991119","","68 South White New Boulevard","","Cincinnati","","OR","","57944","","False",""
"In1","029-87-5316","Hopkins","","Saul","","451-039-2434","","869 Rocky Fabien Way","","Tacoma","","MI","","40032","","False",""
"In1","030-41-4203","Chaney","","Donald","","979-1199201","","575 Hague Boulevard","","Aurora","","WI","","93044","","False",""
"In1","031-34-7655","Short","","Myron","","090-8259508","","552 Green Nobel Avenue","","Seattle","","MT","","13309","","False",""
"In1","033-56-3107","Berg","","Mary","","5372765328","","448 Green First Boulevard","","Greensboro","","MO","","22593","","False",""
"In1","033-96-2990","Glenn","","Glenn","","732938-5961","","13 East Rocky Second Boulevard","","Birmingham","","HI","","10171","","False",""
"In1","034-36-0342","Pugh","","Misty","","4611446712","","627 White Nobel Blvd.","","Fort Wayne","","NJ","","98343","","True",""
"In1","035-23-3645","Graves","","Jon","","066-191-9294","","63 West Milton Blvd.","","Philadelphia","","CA","","30559","","False",""
"In1","036-26-0337","O'Neill","","Marvin","","102-101-8927","","33 Cowley Boulevard","","St. Paul","","AR","","57125","","False",""
"In1","036-28-0629","Estes","","Jacquelyn","","467-875-0374","","688 Green Hague Freeway","","Akron","","MS","","98173","","True",""
"In1","037-09-5187","Miranda","","Dorothy","","918-884-6720","","207 First Street","","San Diego","","MT","","76658","","False",""
"In1","037-24-1427","Cherry","","Antonio","","953-665-1566","","35 Oak Blvd.","","Garland","","NV","","11978","","False",""
"In1","037-88-2320","Hatfield","","Eddie","","1941290657","","63 Fabien Blvd.","","St. Petersburg","","MI","","85712","","False",""
"In1","037-97-4014","Serrano","","Blake","","446-6291235","","33 Green New Road","","El Paso","","PA","","29646","","False",""
"In1","039-06-7617","Fields","","Caroline","","722-593-3123","","25 Clarendon Boulevard","","Seattle","","IA","","14391","","True",""
"In1","039-87-6621","Huber","","Traci","","1514460412","","996 Oak Avenue","","Austin","","VA","","11203","","False",""
"In1","040-68-4281","York","","Katina","","484-4942403","","317 West Oak Freeway","","Columbus","","HI","","32241","","True",""
"In1","040-86-2217","Lester","","Annie","","702-101-8342","","442 West Green Hague St.","","El Paso","","VT","","12808","","False",""
"In1","040-95-9930","Strickland","","Norman","","381-9172321","","745 North Clarendon Freeway","","Mesa","","CT","","03213","","False",""
"In1","041-76-1076","Reynolds","","Shanna","","350-832-1031","","54 Fabien Drive","","San Jose","","PA","","23243","","False",""
"In1","041-91-5307","Mc Dowell","","Vernon","","866-173-7726","","695 Second Blvd.","","Cincinnati","","TN","","69706","","True",""
"In1","043-55-4829","Jarvis","","Kathryn","","318-746-1561","","76 Clarendon Parkway","","Bakersfield","","KY","","30822","","True",""
"In1","044-57-2845","Crane","","Gabrielle","","926-656-5030","","99 South Rocky Clarendon Avenue","","Cincinnati","","AL","","90497","","False",""
"In1","050-95-0398","Parsons","","Roderick","","982891-3328","","606 Rocky Old Parkway","","Columbus","","HI","","78404","","False",""
"In1","051-10-2975","Blair","","Tamara","","042710-5637","","69 Rocky Clarendon Drive","","Long Beach","","AL","","90375","","True",""
"In1","051-49-4978","Hess","","Lonnie","","4133893664","","83 South New Way","","Oklahoma","","CT","","84202","","False",""
"In1","051-52-5206","Rice","","Irma","","494641-8042","","755 Green Clarendon St.","","San Jose","","IL","","28463","","True",""
"In1","052-67-0257","Chavez","","Wanda","","249-440-3671","","51 South White Nobel Boulevard","","Greensboro","","MN","","81848","","True",""
"In1","052-84-7851","Scott","","Telly","","4508279534","","829 White Old Street","","Arlington","","LA","","41094","","False",""
"In1","053-09-5725","Ward","","Kristian","","849-6238112","","605 Rocky Nobel Freeway","","Memphis","","OR","","01545","","True",""
"In1","053-11-7028","Willis","","Jeanette","","002568-0847","","48 Oak Freeway","","Tucson","","MD","","49440","","True",""
"In1","054-14-2608","Villegas","","Kurt","","914-8060617","","26 Nobel Blvd.","","Philadelphia","","IN","","25710","","False",""
"In1","054-86-5613","House","","Rick","","355420-9729","","26 Old Freeway","","Hialeah","","SD","","32289","","True",""
"In1","055-12-1033","Medina","","Salvatore","","459-1030348","","78 White First Drive","","Greensboro","","CA","","43104","","False",""
"In1","055-19-3679","Glass","","Shanna","","140436-7130","","983 South Nobel Street","","Louisville","","DE","","74167","","True",""
"In1","055-39-8562","Brennan","","Karrie","","362698-2391","","59 Cowley Street","","Glendale","","LA","","04216","","True",""
"In1","056-58-7895","Swanson","","Eduardo","","855-379-6236","","887 Clarendon St.","","Birmingham","","KY","","43718","","False",""
"In1","057-36-0238","Potts","","Jason","","1983892002","","147 Second Drive","","St. Petersburg","","SD","","50195","","True",""
"In1","057-75-0148","Carney","","Hugh","","5296813752","","63 White Fabien Way","","Tampa","","CT","","93457","","True",""
"In1","058-96-7586","Lewis","","Kevin","","8962301051","","34 Milton St.","","Sacramento","","OR","","17355","","True",""
"In1","059-14-0926","Roy","","Lee","","8647308296","","451 First Blvd.","","Arlington","","UT","","02124","","True",""
"In1","060-59-6522","Monroe","","John","","915-443-6086","","370 East Green Nobel Road","","Spokane","","SD","","99885","","False",""
"In1","060-95-3315","Ford","","Ronda","","977967-6518","","20 West Green Hague Avenue","","Charlotte","","ID","","81905","","False",""
"In1","061-28-5937","Espinoza","","Sally","","0566012593","","37 Second Boulevard","","Atlanta","","MN","","15119","","True",""
"In1","061-30-8383","Yang","","Brooke","","989-3690194","","829 New St.","","Raleigh","","TX","","82374","","False",""
"In1","061-91-4608","Powell","","Raymond","","301-893-1851","","675 Old Way","","Louisville","","OK","","12879","","True",""
"In1","062-47-3784","Morrison","","Jonathan","","071940-1135","","67 Nobel Way","","Jacksonville","","OH","","40581","","False",""
"In1","063-30-2620","Williams","","Mindy","","432-0691570","","50 East Green Clarendon St.","","Albuquerque","","TX","","19806","","True",""
"In1","063-65-8388","Hayes","","Serena","","499-916-0351","","892 Nobel Blvd.","","New Orleans","","SD","","28642","","True",""
"In1","064-41-7606","Maldonado","","Kendra","","6130932664","","144 Oak St.","","Montgomery","","RI","","03613","","False",""
"In1","064-83-7055","King","","Grace","","159754-3300","","32 First Blvd.","","Nashville","","IL","","13002","","True",""
"In1","066-18-3003","Liu","","Cherie","","4206827374","","23 Hague Parkway","","Jacksonville","","RI","","64228","","False",""
"In1","067-39-6735","Duffy","","Tami","","750-725-9131","","72 Cowley Freeway","","Columbus","","WY","","78511","","False",""
"In1","070-40-4200","Duke","","Albert","","933402-7977","","661 Hague St.","","Fresno","","ID","","27661","","True",""
"In1","073-66-1005","Warren","","Jonathon","","040-8033728","","33 New Way","","Jackson","","MO","","42178","","True",""
"In1","074-70-9236","Castaneda","","Olga","","5102295874","","746 Green Clarendon Drive","","Yonkers","","TN","","69981","","False",""
"In1","076-81-1053","Yates","","Emily","","643718-0574","","35 Milton Street","","Hialeah","","GA","","42478","","True",""
"In1","076-97-2258","Finley","","Kristina","","581857-2245","","938 Fabien Way","","Riverside","","MS","","31007","","False",""
"In1","077-85-8188","Day","","Charity","","543063-8721","","326 North Milton St.","","Sacramento","","MS","","03948","","False",""
"In1","080-66-5741","Bauer","","Rebecca","","2058192959","","30 Nobel Street","","New Orleans","","KY","","04091","","False",""
"In1","085-02-1051","Hansen","","Forrest","","742439-7964","","231 Green Second Way","","Toledo","","NE","","93417","","True",""
"In1","088-50-6761","Wagner","","Julio","","471-229-4889","","68 South White First Way","","Cleveland","","NJ","","43313","","True",""
"In1","088-55-7091","Cook","","Donovan","","168-4844027","","349 White New Road","","Madison","","RI","","66367","","True",""
"In1","090-41-6224","Sellers","","Kris","","902-0957537","","582 Milton Way","","Baton Rouge","","ME","","48980","","False",""
"In1","090-51-2933","Nunez","","Marcos","","721-1990197","","251 North New Drive","","Grand Rapids","","MT","","<NULL>","","False",""
"In1","090-94-5024","Johns","","Alison","","4545814144","","74 West White Fabien Way","","Riverside","","NE","","60621","","True",""
"In1","091-75-9203","Lane","","Andrea","","9670212276","","11 Old Parkway","","Richmond","","WY","","35061","","False",""
"In1","091-93-0436","Ball","","Darren","","3940754358","","851 Green Nobel Avenue","","Long Beach","","IL","","42965","","True",""
"In1","092-19-4231","Lang","","Lorenzo","","374-6886762","","959 Green Oak Road","","Lincoln","","MI","","41366","","True",""
"In1","092-50-1798","Charles","","Myra","","116-117-6843","","708 East Clarendon Parkway","","Miami","","LA","","59888","","True",""
"In1","094-54-8249","Villegas","","Tonia","","439-3953417","","29 Green Nobel Boulevard","","Santa Ana","","OK","","15379","","True",""
"In1","097-03-4921","Baker","","Dustin","","676-2029189","","364 East Green Nobel Avenue","","Jersey","","AL","","15481","","True",""
"In1","097-18-1239","Perry","","Clinton","","3691402249","","387 First Blvd.","","Raleigh","","OR","","56591","","False",""
"In1","098-77-8150","Fox","","Rick","","940849-4159","","598 North Cowley Parkway","","Norfolk","","CO","","39610","","False",""
"In1","099-05-2547","Middleton","","Stacy","","4397507604","","25 Rocky First Way","","Mobile","","OH","","84927","","False",""
"In1","100-31-2490","Griffith","","Elisabeth","","0501514643","","24 Rocky Old Freeway","","St. Paul","","WI","","52144","","False",""
"In1","101-67-4013","Lynn","","John","","5520572365","","64 Green Hague Drive","","Birmingham","","MS","","30252","","True",""
"In1","105-02-0420","Strong","","Erin","","389-9465909","","415 Oak Way","","Little Rock","","NH","","49763","","False",""
"In1","105-82-0017","Sutton","","Eric","","497431-7163","","78 White Milton Parkway","","Oklahoma","","AZ","","63694","","False",""
"In1","105-99-1378","Liu","","Teri","","848-711-7095","","644 North Old Street","","Stockton","","NC","","72995","","False",""
"In1","106-02-3609","Spears","","Renee","","998646-4551","","491 First Way","","Fort Wayne","","WV","","58940","","False",""
"In1","106-06-3072","Lester","","Ana","","698597-4730","","544 New Way","","St. Paul","","MA","","50061","","True",""
"In1","107-19-5304","Robertson","","Frankie","","862-4102203","","73 Fabien Road","","Tampa","","TX","","50922","","False",""
"In1","107-78-1658","Bonilla","","Lashonda","","3074619176","","805 Oak St.","","Oakland","","AK","","03677","","False",""
"In1","107-94-4544","Cochran","","Luke","","6468107519","","67 South Rocky Hague Freeway","","Lubbock","","WY","","01842","","False",""
"In1","108-40-3049","Walls","","Denise","","5268854823","","10 Hague Blvd.","","Charlotte","","NY","","38161","","False",""
"In1","108-87-5163","Cannon","","Jonathan","","2535878403","","730 Fabien Drive","","Mesa","","CA","","29485","","True",""
"In1","109-81-4461","Zimmerman","","Frankie","","020-5935893","","727 North Milton Freeway","","St. Petersburg","","MS","","89839","","True",""
"In1","109-92-4754","Knox","","Herman","","100-429-9198","","90 North Oak Parkway","","Las Vegas","","CA","","59596","","True",""
"In1","110-08-7189","Strickland","","Christian","","800-458-6274","","11 Nobel Drive","","Garland","","LA","","93267","","True",""
"In1","111-76-3094","Walter","","Dianna","","5408369014","","67 East Green Old Freeway","","Richmond","","AR","","93443","","False",""
"In1","111-98-0416","Sheppard","","Marlene","","503-709-6180","","433 South New Avenue","","St. Petersburg","","AL","","84028","","False",""
"In1","113-95-9612","Ruiz","","Jean","","2621852254","","416 First Boulevard","","Oklahoma","","CA","","45734","","False",""
"In1","118-71-3596","Jacobson","","Marilyn","","163-1236962","","821 Oak Drive","","Norfolk","","AR","","50602","","False",""
"In1","120-33-8347","Chavez","","Maggie","","171888-7861","","864 East Cowley Avenue","","Austin","","GA","","86996","","False",""
"In1","120-89-2676","Barron","","Leroy","","718927-7454","","96 Nobel Drive","","Aurora","","AR","","18607","","False",""
"In1","123-78-3697","Fitzgerald","","Jerry","","058-666-6411","","757 Milton Street","","Glendale","","CO","","55129","","True",""
"In1","125-33-4212","Mitchell","","Alicia","","8439186511","","79 West New Road","","Miami","","MT","","38341","","False",""
"In1","125-58-7061","Weiss","","Hilary","","524-291-4827","","49 Rocky Fabien Street","","Oakland","","TX","","68029","","True",""
"In1","126-54-5139","Mays","","Abel","","478-009-6375","","891 Milton Boulevard","","Detroit","","GA","","47570","","False",""
"In1","126-62-4225","Ruiz","","Melody","","4568751801","","574 White New Avenue","","Richmond","","DE","","49847","","False",""
"In1","126-64-2516","Obrien","","Shelly","","155-8003219","","640 Rocky Fabien Street","","San Francisco","","CT","","46067","","True",""
"In1","128-49-2557","George","","Calvin","","035922-0923","","45 Rocky Hague Avenue","","Miami","","ID","","23487","","False",""
"In1","128-73-2319","Higgins","","Everett","","058-665-6614","","27 West Second Way","","Yonkers","","CA","","76611","","True",""
"In1","128-74-3735","Park","","Billy","","046049-9605","","51 White Cowley Road","","Oakland","","MD","","55901","","True",""
"In1","131-25-9721","Pope","","Rosa","","104-650-5898","","75 North White Old Blvd.","","San Francisco","","NE","","74425","","False",""
"In1","131-43-1376","House","","Shane","","734-557-9571","","190 South Green First Parkway","","St. Paul","","MI","","11015","","False",""
"In1","133-56-8059","Cross","","Rodney","","9551648059","","97 Second Street","","Kansas","","CA","","36553","","False",""
"In1","134-81-5976","Farley","","Hope","","818120-9489","","98 South First Drive","","Minneapolis","","NE","","79638","","True",""
"In1","135-09-3634","Knox","","Salvatore","","6982714859","","75 Clarendon St.","","Philadelphia","","VT","","96898","","False",""
"In1","135-32-8722","Cochran","","Michele","","167-1135942","","449 East First Boulevard","","New Orleans","","MS","","10402","","True",""
"In1","137-27-9046","Cordova","","Maribel","","411-5791277","","419 West Rocky Clarendon Parkway","","New Orleans","","UT","","65930","","True",""
"In1","138-23-3973","Glenn","","Leah","","767-495-5250","","125 South Clarendon Street","","Tampa","","ID","","83756","","False",""
"In1","139-31-8547","Mueller","","Diane","","858204-2764","","70 East Green Cowley St.","","Newark","","NV","","76916","","False",""
"In1","141-37-0213","Koch","","Jonathon","","9481541560","","958 South Rocky First Way","","Seattle","","NJ","","46657","","True",""
"In1","142-54-6738","Estes","","Danielle","","4608729227","","11 Milton Boulevard","","Montgomery","","MA","","15820","","False",""
"In1","142-84-6524","Flowers","","Diane","","2084928843","","551 North Milton Parkway","","Lubbock","","IA","","27734","","False",""
"In1","143-73-3311","Mathis","","Dena","","397-782-0693","","265 South Rocky Old St.","","Hialeah","","IN","","26585","","True",""
"In1","144-93-0647","Schaefer","","Paula","","013-9780365","","542 Rocky Cowley Street","","Milwaukee","","<NULL>","","13757","","False",""
"In1","145-70-1504","Singleton","","Rene","","569998-1240","","585 New Drive","","Atlanta","","CT","","95453","","True",""
"In1","146-40-7056","Anthony","","Alice","","065-663-2954","","50 First Boulevard","","Grand Rapids","","IN","","04253","","False",""
"In1","148-13-6665","Pham","","Kristen","","095-792-9568","","47 First Boulevard","","Anchorage","","KS","","50171","","False",""
"In1","148-42-8211","Roberson","","Freddie","","911-161-0029","","42 Green First Road","","Mobile","","HI","","35609","","False",""
"In1","148-97-2623","Tapia","","Terrence","","3186073924","","66 North White Cowley Drive","","Anaheim","","OR","","41544","","False",""
"In1","149-09-3348","Thomas","","Bruce","","600-790-9093","","69 Clarendon Avenue","","Jackson","","HI","","11575","","True",""
"In1","149-32-6606","Hoover","","Alfonso","","135-0194215","","48 Green Clarendon Boulevard","","Hialeah","","NC","","41592","","False",""
"In1","152-57-2614","Proctor","","Elisabeth","","615711-6220","","97 South Green Clarendon St.","","Chicago","","WV","","55027","","False",""
"In1","154-76-5358","Jacobson","","Shelby","","218-4925465","","34 First Road","","Bakersfield","","CT","","57337","","False",""
"In1","156-88-3680","Little","","Jacquelyn","","300-549-1488","","64 Old Road","","Cincinnati","","FL","","80002","","True",""
"In1","159-06-6204","Richard","","Jasmine","","751-071-1214","","53 West Rocky Hague Blvd.","","Spokane","","NH","","59102","","True",""
"In1","161-04-7073","Randolph","","Monica","","5548701763","","983 Green Old Freeway","","San Jose","","IL","","70619","","True",""
"In1","162-01-1013","Petty","","Ricky","","1651545329","","16 Clarendon Street","","Des Moines","","MA","","78227","","False",""
"In1","162-30-7785","Robertson","","Leroy","","885-151-6773","","57 Second Freeway","","Mesa","","NC","","79933","","False",""
"In1","162-51-0027","Whitaker","","Vicki","","6767062412","","27 White Clarendon Parkway","","Cleveland","","FL","","84533","","False",""
"In1","162-70-3230","Nicholson","","Christine","","000-632-2167","","571 East Cowley Parkway","","Fort Worth","","WI","","30435","","False",""
"In1","162-99-7748","Cobb","","Ruby","","999-624-7028","","695 White Fabien Parkway","","Stockton","","LA","","41003","","True",""
"In1","166-66-3606","Mccoy","","Jordan","","7070838829","","20 First St.","","Phoenix","","TN","","88069","","False",""
"In1","167-33-7724","Bentley","","Lorenzo","","875-903-0780","","173 Green Nobel Boulevard","","Tucson","","UT","","66055","","True",""
"In1","168-36-7274","Velasquez","","Kelli","","462-6092456","","44 Milton Freeway","","Hialeah","","TN","","74931","","True",""
"In1","169-09-6540","Stanton","","Randall","","223420-1861","","287 Rocky Fabien St.","","Montgomery","","VA","","30929","","True",""
"In1","170-05-1129","Bruce","","Drew","","119-4150316","","221 Green Fabien Avenue","","Arlington","","OK","","47184","","True",""
"In1","170-24-1331","Townsend","","Audrey","","248-5128537","","79 White New Way","","Madison","","NH","","40040","","True",""
"In1","170-57-8970","Stevens","","Arthur","","124-9456594","","886 First Way","","Jackson","","IL","","75166","","False",""
"In1","172-21-3003","Lang","","Jason","","182-1002439","","96 South White First St.","","Las Vegas","","TX","","93976","","True",""
"In1","172-25-2336","Gardner","","Jamey","","739373-8226","","830 East White New Freeway","","Albuquerque","","NY","","71212","","True",""
"In1","174-18-0914","Rivera","","Jolene","","988-248-2738","","68 New St.","","Jackson","","NE","","71758","","False",""
"In1","175-00-6302","Morrison","","Jeanine","","151-5592615","","397 White First Parkway","","Des Moines","","GA","","99438","","False",""
"In1","177-64-8069","Blanchard","","Jesse","","8008613079","","66 First Road","","El Paso","","NJ","","53791","","True",""
"In1","179-61-0200","Fletcher","","Clay","","185-6555725","","53 West Nobel Blvd.","","Arlington","","TN","","50718","","True",""
"In1","180-47-3854","Clay","","Misti","","460290-4674","","317 First St.","","Norfolk","","FL","","13922","","True",""
"In1","181-72-2096","Vasquez","","Josephine","","350-887-0879","","123 Nobel Road","","Rochester","","NY","","39560","","True",""
"In1","181-79-4047","Logan","","James","","2154097320","","45 New Road","","Oakland","","CO","","80875","","True",""
"In1","184-68-3225","De Leon","","Latasha","","7396007645","","76 Green Oak Road","","<NULL>","","AZ","","62778","","True",""
"In1","184-79-5865","Kennedy","","Derick","","805-0866013","","118 Old Parkway","","Raleigh","","ND","","97987","","True",""
"In1","187-43-1959","Dunlap","","Perry","","189-5055151","","24 Fabien St.","","Baton Rouge","","NM","","36178","","False",""
"In1","189-82-4950","House","","Mark","","6821380415","","925 Rocky New Parkway","","Philadelphia","","MA","","56352","","True",""
"In1","189-98-5484","Chen","","Arthur","","783124-5582","","237 Nobel Drive","","El Paso","","AL","","47501","","True",""
"In1","190-89-9725","Best","","Jane","","218359-3937","","588 Green Clarendon Boulevard","","Fremont","","OR","","61291","","False",""
"In1","191-67-7426","Mills","","Helen","","4132573394","","669 Green Milton Blvd.","","Charlotte","","RI","","24011","","False",""
"In1","192-39-8844","Robbins","","Julian","","0405795051","","25 First St.","","Honolulu","","KY","","08021","","False",""
"In1","192-86-8474","Farmer","","Marcella","","786-138-6114","","505 West White Fabien St.","","Columbus","","IA","","88477","","False",""
"In1","192-96-1750","Atkinson","","Helen","","859-8891964","","532 South Rocky New Avenue","","Detroit","","MO","","86163","","False",""
"In1","193-30-9166","Espinoza","","Casey","","212-271-3306","","93 West Rocky Old Street","","Seattle","","CA","","41155","","True",""
"In1","195-12-2276","Ferguson","","Noah","","897426-5737","","23 Old Way","","Mobile","","UT","","71202","","True",""
"In1","195-70-5385","Figueroa","","Kareem","","377086-7815","","43 White First Road","","Louisville","","IA","","15549","","True",""
"In1","196-10-0005","Gutierrez","","Amy","","0577516636","","798 East Cowley Way","","Charlotte","","WI","","69946","","True",""
"In1","196-63-0399","Friedman","","Gina","","749-0959872","","58 Green First Blvd.","","Tucson","","TN","","20995","","False",""
"In1","196-72-8410","Kirk","","Darrin","","609-9656716","","727 North White Second Street","","<NULL>","","MO","","52945","","False",""
"In1","199-77-6436","Schroeder","","Salvatore","","089-8795388","","29 Clarendon Way","","Minneapolis","","AZ","","52703","","True",""
"In1","199-80-4413","Yates","","Chasity","","840-935-7759","","504 Clarendon Road","","Yonkers","","HI","","76774","","False",""
"In1","199-89-7236","Rios","","Abigail","","399015-0452","","270 South White Old St.","","<NULL>","","TN","","34059","","False",""
"In1","200-79-4022","Bean","","Harvey","","558-796-7121","","32 Cowley Parkway","","St. Petersburg","","MS","","96702","","True",""
"In1","201-06-0843","Odom","","Arturo","","100690-3224","","18 White Nobel Way","","San Jose","","LA","","93679","","True",""
"In1","201-28-7512","Buckley","","Vanessa","","935140-8764","","149 First Freeway","","Tucson","","ND","","31055","","False",""
"In1","202-16-8169","Higgins","","Amanda","","349693-1174","","460 Nobel St.","","Philadelphia","","TX","","46515","","False",""
"In1","204-05-8509","Rosario","","Darryl","","017653-4484","","994 Green Nobel Road","","Montgomery","","CT","","15742","","False",""
"In1","205-29-2040","Rivera","","Chester","","372-182-7457","","949 Nobel St.","","Hialeah","","WI","","18483","","False",""
"In1","207-64-2087","Reid","","Leon","","6417917134","","602 First Blvd.","","<NULL>","","KS","","77513","","True",""
"In1","207-78-0305","Travis","","Chad","","633-9278550","","47 Rocky Milton Drive","","Colorado","","PA","","76258","","True",""
"In1","207-89-8898","Liu","","Jeremy","","569370-9367","","29 First Street","","Yonkers","","VA","","90683","","True",""
"In1","209-69-4384","Yoder","","Rogelio","","2393647103","","250 Rocky Old St.","","Sacramento","","WV","","79392","","True",""
"In1","210-67-6548","Lambert","","Heath","","769-088-9755","","881 Fabien St.","","Philadelphia","","MA","","73221","","True",""
"In1","210-93-9006","Reese","","Samuel","","532-1478929","","428 South Second Way","","Baltimore","","VT","","63703","","True",""
"In1","211-02-7976","Davidson","","Bryon","","333-397-6576","","22 Cowley Avenue","","Dallas","","VA","","09047","","True",""
"In1","212-45-2924","Guerra","","Tammi","","683-500-6405","","61 Green Old Freeway","","Hialeah","","IA","","05662","","False",""
"In1","212-95-4422","Sexton","","Ruth","","716-225-8956","","12 Rocky New Freeway","","Mobile","","PA","","96071","","False",""
"In1","214-33-4175","Massey","","Shanda","","674454-4636","","59 Rocky Milton Road","","St. Louis","","NH","","04483","","False",""
"In1","214-83-3733","Jensen","","Tamara","","5488830404","","566 South Second Parkway","","Shreveport","","AL","","95433","","False",""
"In1","215-05-6763","Walker","","Stephen","","8948966144","","26 Milton Blvd.","","Virginia Beach","","ME","","60832","","False",""
"In1","215-08-0738","Conrad","","Jenny","","437-9832152","","18 Cowley Drive","","Memphis","","OR","","36641","","False",""
"In1","215-57-6534","Mcclain","","Kelly","","002-189-6940","","532 Milton Freeway","","Baton Rouge","","KS","","88130","","False",""
"In1","217-27-5883","Ferrell","","Lisa","","1232540674","","986 West Old Street","","Bakersfield","","VA","","13046","","True",""
"In1","217-29-0815","Gutierrez","","Quincy","","954714-5545","","16 East Nobel Way","","Minneapolis","","MA","","50097","","True",""
"In1","218-12-6426","Ruiz","","Jose","","846-4969015","","26 South Second Parkway","","Stockton","","OK","","66007","","False",""
"In1","218-26-1676","Barnett","","Enrique","","065-5637144","","842 West Rocky First Way","","Colorado","","NJ","","76734","","False",""
"In1","218-68-5242","Mcclain","","Christine","","285965-1931","","81 First St.","","Oakland","","TX","","88457","","True",""
"In1","219-41-4410","Guerrero","","Angelia","","847-387-0317","","339 West Rocky Hague Blvd.","","Mesa","","HI","","14042","","False",""
"In1","219-96-9207","Wyatt","","Miguel","","859-785-9681","","90 West Old Freeway","","Birmingham","","NV","","01734","","True",""
"In1","220-43-7067","Zimmerman","","Mason","","718971-0485","","638 Rocky Old Parkway","","El Paso","","MS","","21385","","False",""
"In1","222-74-4390","Pruitt","","Stephen","","496-998-1327","","96 Green New Road","","Norfolk","","WI","","65551","","True",""
"In1","223-28-0048","Santiago","","Dawn","","994-2444337","","572 Oak Way","","Atlanta","","AZ","","29788","","False",""
"In1","223-43-9216","Clark","","Jermaine","","5030548810","","82 Clarendon Boulevard","","Toledo","","SD","","84502","","True",""
"In1","223-87-5703","Wilson","","Sarah","","3099163234","","656 Milton Street","","Fort Worth","","NV","","54112","","False",""
"In1","224-43-7178","Sawyer","","Tia","","019062-9839","","61 Hague Road","","Wichita","","LA","","79070","","False",""
"In1","224-84-7036","Larson","","Fernando","","580169-3408","","61 Green Second Parkway","","Norfolk","","LA","","74869","","True",""
"In1","226-09-7377","Tucker","","Cara","","689-3259038","","112 Cowley St.","","Miami","","SC","","88050","","True",""
"In1","227-55-4204","Hodge","","Javier","","631-219-5163","","54 East Second Street","","San Francisco","","FL","","44225","","True",""
"In1","227-82-7495","Madden","","Shelby","","386-7410941","","35 Green Cowley Street","","Philadelphia","","CO","","86706","","True",""
"In1","231-34-7770","Figueroa","","Telly","","716483-5283","","969 Green First Parkway","","Louisville","","MA","","41432","","True",""
"In1","231-94-2881","Guerrero","","Mike","","2670920343","","114 Nobel Drive","","Toledo","","CT","","92199","","False",""
"In1","233-20-7794","Massey","","Donald","","219-136-3156","","33 Second Road","","Lubbock","","TN","","94629","","False",""
"In1","233-28-2505","Shepherd","","Ethan","","732-881-1630","","271 Green Second Road","","Little Rock","","AK","","98983","","True",""
"In1","233-40-3827","Garrett","","Bret","","091-7469924","","78 Green Fabien Boulevard","","Tacoma","","GA","","93651","","True",""
"In1","233-69-3803","Becker","","Demond","","456444-5579","","30 West Milton St.","","Louisville","","HI","","98516","","True",""
"In1","233-72-4776","Doyle","","Harold","","691-4449281","","84 North Rocky Milton Avenue","","Miami","","WI","","62776","","False",""
"In1","236-47-8571","Maxwell","","Hilary","","903-994-4059","","41 South White New Freeway","","Baton Rouge","","NY","","54607","","False",""
"In1","237-31-2526","Price","","Tabatha","","311670-2765","","213 First Drive","","Miami","","UT","","19188","","True",""
"In1","241-59-8516","Suarez","","Stephan","","621-973-2330","","549 Old Road","","Birmingham","","SD","","03071","","False",""
"In1","242-73-3251","Yu","","Kirsten","","865-4686595","","30 First Street","","Birmingham","","IL","","89953","","False",""
"In1","242-82-1421","Cuevas","","Barbara","","777419-4282","","64 Green Clarendon St.","","Riverside","","NH","","98078","","False",""
"In1","243-80-7866","Alvarez","","Cory","","118-271-7419","","115 Milton Way","","Seattle","","NV","","31078","","False",""
"In1","246-83-5850","Dillon","","Tamara","","147-6847165","","32 East Green Fabien Boulevard","","Buffalo","","WY","","81693","","False",""
"In1","246-97-9019","Cobb","","Clint","","3488380638","","224 Rocky Second Parkway","","St. Petersburg","","MT","","38816","","False",""
"In1","247-22-3690","Conner","","Lashonda","","084-164-6103","","255 North White Cowley Parkway","","Toledo","","NE","","96697","","True",""
"In1","248-22-6337","Ramsey","","Taryn","","282-3447306","","705 Rocky Hague St.","","New York","","SD","","45532","","True",""
"In1","249-95-1811","Matthews","","Gerald","","733-844-1562","","143 West First Street","","Toledo","","AL","","38673","","False",""
"In1","250-72-8288","Chambers","","Kelly","","304-175-8409","","39 Fabien Blvd.","","Jacksonville","","MO","","90366","","False",""
"In1","251-85-4426","Knox","","Naomi","","316998-8971","","324 Rocky Milton Freeway","","St. Paul","","MT","","88425","","True",""
"In1","253-95-5658","Vaughan","","Carey","","522887-6856","","12 South Clarendon Blvd.","","Garland","","PA","","10940","","True",""
"In1","254-94-0967","Murray","","Clifford","","4124905565","","61 Old Boulevard","","Columbus","","MI","","17561","","True",""
"In1","255-63-1445","Wiley","","Sherri","","5437519153","","440 Rocky Milton Street","","Arlington","","MN","","85182","","True",""
"In1","256-14-5705","Tran","","Rolando","","521-820-7011","","339 Nobel Parkway","","Birmingham","","RI","","05077","","False",""
"In1","256-53-8551","Duncan","","Sabrina","","732072-4593","","237 Rocky Nobel Parkway","","Phoenix","","GA","","47319","","True",""
"In1","257-22-6999","Galvan","","Esmeralda","","637-5525612","","761 Green First Drive","","Omaha","","RI","","79847","","False",""
"In1","257-47-7024","Chandler","","Marilyn","","9838073956","","18 North Oak Blvd.","","Wichita","","MD","","11401","","True",""
"In1","257-80-9423","Terrell","","Brad","","833-358-1467","","40 New Street","","Mobile","","OH","","87645","","False",""
"In1","257-90-0902","Orr","","Tricia","","065-2777214","","11 Rocky New Boulevard","","Cleveland","","HI","","16650","","True",""
"In1","258-54-7616","Cobb","","Toby","","759-056-2914","","578 West First Blvd.","","Jersey","","KY","","02276","","True",""
"In1","258-69-5846","Martin","","Vanessa","","621183-1628","","595 Green Old Parkway","","Des Moines","","NH","","08964","","True",""
"In1","259-12-4427","Harrison","","Reginald","","892-0313429","","67 First Way","","Jackson","","PA","","78564","","False",""
"In1","259-90-8379","Patrick","","Jeannie","","020782-6504","","68 New St.","","Washington","","AL","","42881","","False",""
"In1","259-91-3092","Freeman","","Brent","","6200562736","","65 Cowley Way","","New York","","DE","","97207","","False",""
"In1","259-94-0516","Fletcher","","Amber","","164753-6760","","37 White Oak Blvd.","","Mesa","","VA","","68750","","True",""
"In1","264-17-1802","Orr","","Chasity","","075-1248671","","263 Clarendon Parkway","","Greensboro","","NV","","48623","","True",""
"In1","264-80-9268","Foley","","Charlene","","195-015-9738","","21 Old Way","","San Francisco","","MO","","20164","","False",""
"In1","266-68-7720","Stein","","Milton","","227-5920701","","965 White Nobel Parkway","","Denver","","NH","","13602","","False",""
"In1","266-69-1297","Porter","","Mason","","816-108-4748","","74 New Road","","Dayton","","ND","","71311","","True",""
"In1","267-61-4436","Davis","","Steven","","816871-2893","","107 Rocky Nobel Road","","Anaheim","","MO","","29754","","False",""
"In1","268-81-1943","Fischer","","Andy","","9975578663","","37 Hague Avenue","","Mobile","","MN","","40125","","True",""
"In1","269-03-7790","Frank","","Anitra","","339-059-7506","","906 First St.","","Bakersfield","","RI","","16496","","True",""
"In1","272-03-7018","Ellison","","Gwendolyn","","3626438928","","64 Nobel Road","","Birmingham","","ID","","34215","","True",""
"In1","272-54-1733","Goodwin","","Kelli","","038-497-2476","","488 North Rocky Milton Freeway","","Omaha","","CO","","<NULL>","","True",""
"In1","272-82-7008","Jones","","Oscar","","4484211703","","994 Nobel Drive","","Richmond","","NY","","43823","","True",""
"In1","274-70-0742","Odonnell","","Max","","575-2636974","","97 Fabien Drive","","Madison","","FL","","03536","","False",""
"In1","277-04-3871","Madden","","Rex","","943-4728059","","839 White First Road","","Philadelphia","","NV","","86117","","False",""
"In1","277-48-1594","Cardenas","","Anita","","987-9776123","","95 New Blvd.","","Mobile","","TX","","18855","","False",""
"In1","279-10-1040","Obrien","","Marilyn","","099699-3741","","647 Rocky Clarendon Boulevard","","Tucson","","CT","","43607","","False",""
"In1","280-68-3619","Kline","","Karl","","4344511645","","29 Fabien Street","","Phoenix","","SC","","87459","","True",""
"In1","281-78-9270","Hartman","","Dianna","","101595-0917","","79 West White Fabien Street","","Jackson","","NC","","96377","","True",""
"In1","282-46-7867","Patton","","Felipe","","8579235461","","57 First Boulevard","","Minneapolis","","AL","","12473","","True",""
"In1","290-25-5664","Kaiser","","Belinda","","757-6997236","","268 Green Milton Freeway","","Louisville","","UT","","61103","","False",""
"In1","290-35-6050","Prince","","Rebekah","","203-702-3589","","73 Fabien Road","","Arlington","","NY","","48916","","False",""
"In1","291-53-8444","Daugherty","","Derrick","","941676-9936","","10 Milton Freeway","","Lubbock","","NC","","45955","","False",""
"In1","292-72-9941","Hopkins","","Colin","","6181256624","","871 Second Street","","Jacksonville","","CT","","06629","","False",""
"In1","293-38-9029","Werner","","Ted","","4032991797","","544 East White Old Street","","Greensboro","","TX","","94964","","True",""
"In1","299-70-3506","Spencer","","Kirsten","","767-0762180","","23 South White New Parkway","","Miami","","MA","","05143","","True",""
"In1","299-96-9298","Schaefer","","Lea","","359-904-7815","","903 Green Second St.","","Houston","","ND","","70556","","True",""
"In1","302-03-9834","Mack","","Felix","","3075324866","","714 Cowley Freeway","","San Francisco","","WV","","52483","","False",""
"In1","302-78-1184","Harvey","","Luz","","375178-6866","","341 West White Hague Boulevard","","Indianapolis","","GA","","73132","","False",""
"In1","302-79-6583","Velez","","Jerry","","232947-4276","","28 South Second Blvd.","","Des Moines","","MN","","35755","","True",""
"In1","303-56-4235","Porter","","Carey","","795559-7593","","901 West Cowley St.","","Phoenix","","RI","","10652","","False",""
"In1","306-87-6081","O'Connor","","Cari","","005-6188573","","34 Green Second Freeway","","Garland","","CO","","49732","","True",""
"In1","308-35-6312","Moody","","Josh","","062667-1515","","821 Cowley Freeway","","Tucson","","TN","","07514","","False",""
"In1","309-08-3772","Wells","","Amber","","532-7286935","","415 Nobel St.","","Phoenix","","VA","","34513","","False",""
"In1","310-30-7005","Hood","","Clifton","","044824-9513","","643 White Nobel Blvd.","","Colorado","","VT","","31099","","True",""
"In1","312-12-6958","Banks","","Yolanda","","4273316930","","339 Milton Parkway","","Arlington","","AZ","","66343","","True",""
"In1","312-23-3894","Daniels","","Kimberley","","625-8608327","","918 North Cowley Way","","Houston","","UT","","12380","","False",""
"In1","312-45-3777","Hodge","","Bethany","","218-391-6960","","775 Green Milton Freeway","","Sacramento","","ME","","73529","","True",""
"In1","320-87-8715","Santos","","Eileen","","503732-8618","","863 Old Parkway","","Norfolk","","AZ","","78962","","True",""
"In1","322-65-3060","Cooley","","Charlie","","1537302612","","34 Green First Blvd.","","Rochester","","MN","","60267","","True",""
"In1","323-10-8910","Mc Carthy","","Stephan","","915-164-9960","","97 Nobel Avenue","","Tulsa","","AK","","07601","","False",""
"In1","324-12-6852","Ayala","","Alonzo","","617683-2690","","882 Rocky Clarendon Street","","Nashville","","KS","","68835","","True",""
"In1","324-47-9101","Huffman","","Kenneth","","7653158638","","128 West Cowley Freeway","","Minneapolis","","KS","","41722","","True",""
"In1","324-93-4925","Lowery","","Marcos","","675-975-8845","","126 East New Parkway","","Yonkers","","ME","","56573","","True",""
"In1","325-95-1151","Jarvis","","Cary","","580-532-3280","","856 Green Oak St.","","Akron","","NY","","30830","","False",""
"In1","328-00-0971","Odom","","Jody","","371-0064762","","37 New Drive","","Baton Rouge","","SC","","71433","","True",""
"In1","330-88-0909","English","","Amelia","","165-3111316","","97 Old Freeway","","Cincinnati","","ID","","98047","","True",""
"In1","332-57-5201","Mc Connell","","Hector","","776752-9052","","656 Cowley Blvd.","","St. Louis","","SD","","43812","","False",""
"In1","335-01-5766","Raymond","","April","","164-120-1551","","72 Oak Freeway","","Greensboro","","AK","","35710","","True",""
"In1","335-54-5056","Brandt","","Roman","","692429-3182","","31 North Rocky Old Boulevard","","Mesa","","ME","","73010","","False",""
"In1","337-00-9598","Marshall","","Maurice","","789199-9276","","39 South Hague Avenue","","Tampa","","CO","","96098","","True",""
"In1","338-86-4730","Walton","","Christine","","747-8690716","","410 Green Milton Parkway","","Mesa","","PA","","50669","","False",""
"In1","339-34-4928","Bullock","","Roderick","","531549-4120","","195 Milton Street","","Newark","","ND","","78360","","True",""
"In1","339-51-0145","Turner","","Timmy","","200267-2916","","265 White Hague Blvd.","","Akron","","NM","","11692","","True",""
"In1","339-87-1906","Mathis","","Anitra","","427937-1802","","33 First Parkway","","Minneapolis","","KY","","18629","","False",""
"In1","342-59-6046","Atkins","","Sonja","","7173298901","","42 Hague Road","","Fort Worth","","KS","","22963","","True",""
"In1","343-59-4886","Bennett","","Nancy","","397-3261417","","868 East White Oak Drive","","Montgomery","","TN","","98642","","False",""
"In1","344-11-1418","Chambers","","Tania","","387136-4279","","47 South Hague Boulevard","","New Orleans","","WA","","70207","","False",""
"In1","345-14-2792","Snyder","","Angel","","1356702336","","70 West White Fabien Street","","Pittsburgh","","FL","","11743","","True",""
"In1","346-59-1230","Simon","","Belinda","","401644-1968","","959 South First Boulevard","","San Francisco","","WY","","63421","","False",""
"In1","349-35-8784","Caldwell","","Marla","","641-9396164","","56 Milton Parkway","","Fresno","","MD","","70675","","False",""
"In1","351-69-4362","Mercado","","Megan","","2071008484","","58 East Rocky First Drive","","Fort Wayne","","GA","","74312","","True",""
"In1","353-13-2026","Mccarty","","Sherman","","697-1339989","","28 Second Blvd.","","Las Vegas","","MI","","94931","","False",""
"In1","355-96-5508","Valdez","","Henry","","940-9279819","","82 Milton Parkway","","Cincinnati","","SD","","56318","","True",""
"In1","356-57-2043","Archer","","Perry","","081848-0415","","629 South Rocky New Street","","Bakersfield","","MN","","05975","","False",""
"In1","359-22-7209","Guzman","","Jocelyn","","2553632917","","42 White Fabien Freeway","","Mesa","","ND","","72294","","True",""
"In1","359-30-0433","Valenzuela","","Evan","","977305-6327","","73 First St.","","Santa Ana","","MO","","13720","","True",""
"In1","361-04-1334","Michael","","Bethany","","9338831108","","71 First Freeway","","El Paso","","ID","","40246","","True",""
"In1","361-44-3760","Hart","","Timothy","","0458675274","","537 South Milton Road","","Dallas","","MI","","01214","","False",""
"In1","362-65-0044","Hendricks","","Lea","","428987-0769","","739 South White Old Street","","Anchorage","","KY","","90394","","True",""
"In1","363-41-4980","Beltran","","Diana","","4509349985","","68 Rocky Second Drive","","Philadelphia","","SD","","65373","","True",""
"In1","365-20-7228","Willis","","Margaret","","765-4513163","","69 North Green Clarendon Parkway","","Montgomery","","RI","","64809","","True",""
"In1","366-41-4615","Bauer","","Alfred","","6831242192","","45 Cowley Blvd.","","Minneapolis","","OK","","04288","","True",""
"In1","367-51-3168","Walls","","Warren","","116812-3341","","33 North Green Nobel Parkway","","Fresno","","TX","","37411","","False",""
"In1","371-20-1172","Gentry","","Teri","","3071080427","","250 Milton Road","","Aurora","","NM","","34600","","False",""
"In1","371-89-3630","Melton","","Jean","","876-3087004","","505 Rocky Nobel Way","","Miami","","WV","","81064","","False",""
"In1","372-82-6731","Ramsey","","Seth","","974-981-5017","","92 New Blvd.","","El Paso","","WV","","19080","","False",""
"In1","373-89-4630","Hicks","","Louis","","6230514585","","335 First Freeway","","Dallas","","VA","","33123","","False",""
"In1","374-84-1913","Montgomery","","Lynette","","472-002-2790","","238 Green Oak Road","","El Paso","","ID","","58111","","False",""
"In1","375-46-1498","Savage","","Marty","","9209562481","","454 Milton Road","","Toledo","","GA","","86497","","False",""
"In1","375-92-7576","Roberts","","Lakisha","","4674405267","","68 Second Drive","","Little Rock","","IN","","99848","","True",""
"In1","378-07-1954","Mccall","","Joey","","778-0395432","","716 North Green Old Blvd.","","Fort Wayne","","UT","","81175","","True",""
"In1","378-31-1921","Hodge","","Cassie","","597-0985356","","200 Hague Freeway","","Anaheim","","AK","","81277","","False",""
"In1","378-75-2839","Hughes","","Dwayne","","489-2332881","","92 New Avenue","","Dallas","","CA","","31024","","False",""
"In1","379-05-8146","Boyle","","Lorenzo","","1616528786","","57 East Hague Drive","","St. Petersburg","","AZ","","73336","","True",""
"In1","379-56-8957","Keith","","Shelby","","949-9288534","","603 Green Nobel Parkway","","Sacramento","","AZ","","27796","","False",""
"In1","380-89-7607","Booker","","Bridgette","","357-629-6724","","62 Oak Blvd.","","Lincoln","","OH","","87540","","False",""
"In1","381-53-2551","Monroe","","Alan","","380041-7376","","854 Rocky New Road","","Buffalo","","AR","","01184","","True",""
"In1","381-66-5968","Webster","","Monica","","984733-6692","","17 New Boulevard","","Buffalo","","LA","","27472","","True",""
"In1","382-53-8882","Booker","","Sam","","338-1240149","","497 South Clarendon St.","","Albuquerque","","AZ","","92884","","False",""
"In1","383-32-0775","Berry","","Leo","","016-591-7874","","<NULL>","","Baltimore","","IL","","75227","","True",""
"In1","383-49-8715","Maddox","","Larry","","564853-7904","","98 West New Drive","","Austin","","NE","","99207","","True",""
"In1","383-56-4599","Shelton","","Claude","","3617480463","","872 East Cowley Parkway","","San Jose","","OR","","83187","","False",""
"In1","383-66-7689","Hanna","","Vanessa","","629-879-1005","","756 Green Fabien Parkway","","Yonkers","","IA","","28958","","False",""
"In1","384-28-0422","Randall","","Caroline","","039-8084257","","78 New Boulevard","","Kansas","","NV","","83634","","False",""
"In1","384-78-8459","Pugh","","Wendy","","103-513-2328","","397 Nobel Blvd.","","Austin","","WV","","47856","","False",""
"In1","385-14-7927","Wright","","Irene","","054-8999021","","393 First Road","","Hialeah","","NH","","69309","","True",""
"In1","385-17-3553","Johnson","","Marco","","754-417-5183","","27 North White Oak Street","","Rochester","","VA","","74934","","True",""
"In1","385-19-9996","Orozco","","Gretchen","","7929728784","","382 Second Street","","Omaha","","LA","","34458","","False",""
"In1","385-60-1546","Booth","","Shelley","","794-7904834","","54 Hague Blvd.","","San Diego","","NC","","81667","","False",""
"In1","385-97-7274","Black","","Amelia","","299-8654515","","61 West Old Freeway","","Lubbock","","GA","","00186","","True",""
"In1","387-01-8813","Warner","","Richard","","007628-0752","","680 White Clarendon Freeway","","Fort Wayne","","DE","","06897","","True",""
"In1","387-05-4594","Holmes","","Joanne","","720-5572359","","92 South Rocky First St.","","Denver","","NV","","50257","","True",""
"In1","387-68-8741","Sharp","","Lorena","","858574-5056","","28 Oak Road","","Omaha","","NV","","33187","","False",""
"In1","389-86-9002","Christian","","Billie","","228-5257703","","89 Green Hague Parkway","","Nashville","","OR","","<NULL>","","True",""
"In1","389-93-4593","Krause","","Frank","","0590467089","","39 White New Street","","Little Rock","","AZ","","62112","","True",""
"In1","390-62-6320","Stokes","","Kristen","","7602880514","","177 First Blvd.","","Newark","","IA","","81183","","False",""
"In1","391-02-0500","Daniel","","Marsha","","672-881-0168","","39 First Freeway","","Raleigh","","AZ","","61414","","True",""
"In1","393-47-0668","Mckay","","Kirsten","","789-8821314","","30 Rocky Clarendon Drive","","Memphis","","OH","","08602","","False",""
"In1","394-00-9205","Webster","","Otis","","6398667347","","81 White New Boulevard","","Las Vegas","","MS","","06570","","True",""
"In1","394-24-7916","Cooley","","Jason","","0240706422","","495 East Clarendon Road","","Riverside","","FL","","67111","","True",""
"In1","394-78-2186","Nichols","","Tricia","","911847-6135","","28 Clarendon Drive","","Austin","","TN","","63547","","True",""
"In1","395-52-3474","Ware","","Mitchell","","775-3793452","","454 White New Road","","Albuquerque","","WA","","13825","","True",""
"In1","396-36-5442","Whitaker","","Ronald","","383915-9848","","43 West White Cowley St.","","<NULL>","","VT","","80910","","False",""
"In1","396-41-0401","Becker","","Amber","","7437362486","","51 North Nobel Blvd.","","Albuquerque","","NC","","92830","","True",""
"In1","396-59-7812","Wright","","Leon","","481-5521821","","525 Green Hague Freeway","","Arlington","","NJ","","66607","","False",""
"In1","397-85-9270","Myers","","Lindsay","","9501558381","","48 East White Nobel Blvd.","","Jacksonville","","NV","","55400","","False",""
"In1","397-92-1044","Keith","","Eric","","595560-1664","","78 Nobel Parkway","","Jacksonville","","WY","","98090","","False",""
"In1","398-98-9019","Maxwell","","Sabrina","","6090681351","","99 Green Old Freeway","","Mesa","","FL","","02632","","False",""
"In1","399-04-5652","Cherry","","Drew","","026-963-6663","","106 Green Second Avenue","","Stockton","","OK","","28446","","False",""
"In1","400-01-0480","Daniels","","Marvin","","376-9366925","","88 North Rocky New Drive","","Fremont","","MD","","34650","","False",""
"In1","400-01-9740","Perez","","Robyn","","534986-6355","","713 Second St.","","Baton Rouge","","ND","","14680","","False",""
"In1","400-91-5789","Sharp","","Ted","","3710923677","","794 New Drive","","<NULL>","","AL","","79466","","False",""
"In1","401-22-2749","Avery","","Helen","","142170-6962","","600 Green Oak Boulevard","","Austin","","ND","","<NULL>","","True",""
"In1","403-27-8301","Phillips","","Candy","","398925-2079","","523 Rocky New Road","","Chicago","","IA","","86282","","False",""
"In1","404-64-1990","Clements","","Marisa","","2151630448","","74 North First Drive","","Montgomery","","WI","","00296","","True",""
"In1","406-12-1085","Whitehead","","Cherie","","618-357-5238","","406 White Fabien Drive","","Washington","","DE","","26319","","False",""
"In1","407-58-1152","Silva","","Marilyn","","416-220-2512","","816 First Drive","","Kansas","","CT","","93420","","False",""
"In1","408-21-6287","Guerra","","Diana","","5207318226","","17 Rocky Cowley Blvd.","","Pittsburgh","","CT","","65133","","False",""
"In1","410-43-1408","Mckay","","Megan","","5315837930","","20 East Cowley Blvd.","","Mesa","","MI","","47463","","False",""
"In1","411-06-0451","Burns","","Donna","","596260-6981","","967 Fabien Blvd.","","Phoenix","","MT","","73184","","False",""
"In1","412-87-8386","Tyler","","Christa","","740-9947395","","968 Green Cowley Road","","New Orleans","","NY","","58560","","True",""
"In1","415-00-8725","Finley","","Jane","","0506192219","","81 North White New Drive","","Fort Wayne","","WI","","64827","","False",""
"In1","415-30-2694","Graves","","Dora","","025162-3942","","517 Nobel Avenue","","Jackson","","GA","","02616","","False",""
"In1","415-80-2764","Schmitt","","Felipe","","590-4260381","","45 Rocky Milton Boulevard","","Atlanta","","NV","","11713","","True",""
"In1","416-71-9399","Key","","Cheri","","5433496842","","354 South Oak Avenue","","Wichita","","NM","","72252","","True",""
"In1","417-04-1182","Daniel","","Lashonda","","9200214196","","296 North White Oak Parkway","","Madison","","NH","","14505","","False",""
"In1","417-04-4112","Robinson","","Desiree","","365559-0895","","473 Oak Boulevard","","Philadelphia","","SC","","76807","","False",""
"In1","418-86-2180","Kirby","","Oscar","","114-5070917","","21 Rocky Second Freeway","","Portland","","NY","","19075","","True",""
"In1","419-23-1520","Matthews","","Carlton","","2364752167","","45 South Oak Freeway","","Oakland","","PA","","11537","","False",""
"In1","420-14-2796","English","","Andy","","048-918-0144","","25 Green Clarendon Road","","Baton Rouge","","AK","","71985","","False",""
"In1","422-03-5317","Haley","","Alana","","2275613277","","40 North New Freeway","","New Orleans","","MD","","06431","","False",""
"In1","424-57-6660","Shepard","","Andres","","697-2890270","","84 Old Freeway","","Memphis","","FL","","38465","","True",""
"In1","424-80-8562","Krause","","Mitchell","","002-616-7055","","182 Rocky First Freeway","","Jersey","","IN","","78467","","False",""
"In1","425-43-1346","Ward","","Marcy","","8623213961","","44 Green Nobel Blvd.","","Stockton","","NC","","57753","","False",""
"In1","425-69-2922","Barron","","Alicia","","759548-9912","","56 Second Way","","Oklahoma","","GA","","28098","","True",""
"In1","428-63-5921","Sutton","","Melvin","","765730-8508","","980 New Street","","Hialeah","","ID","","73661","","False",""
"In1","428-86-9962","Golden","","Becky","","991-240-6561","","47 Milton Way","","Jackson","","MT","","07954","","True",""
"In1","429-15-8236","Knight","","Gerardo","","667716-1256","","96 Green New Street","","Chicago","","MD","","71528","","False",""
"In1","429-42-8147","Mc Lean","","Rebecca","","135010-0750","","739 Clarendon Drive","","Tampa","","SD","","00910","","True",""
"In1","429-69-7739","Soto","","Kendall","","094-6199686","","91 West Fabien Parkway","","Spokane","","WY","","18093","","False",""
"In1","429-73-3647","Gregory","","Laurie","","019162-2889","","65 Nobel Freeway","","Fort Wayne","","DE","","74712","","True",""
"In1","430-48-4383","Larsen","","Bennie","","5741986867","","486 South Green Cowley Blvd.","","Fremont","","PA","","24067","","False",""
"In1","430-50-0136","Marks","","Garry","","8069631989","","144 White Hague Way","","San Jose","","NM","","35359","","True",""
"In1","430-94-9041","Rojas","","Robin","","589359-8076","","436 Rocky First Freeway","","El Paso","","IL","","11657","","False",""
"In1","430-98-0538","Brady","","Charlene","","6345431811","","64 East Green Milton Parkway","","St. Louis","","OH","","57256","","True",""
"In1","431-08-8624","Bridges","","Marsha","","032-012-6094","","44 Milton Parkway","","Lubbock","","ID","","87979","","False",""
"In1","433-67-5418","Bradley","","Tabatha","","311-4610869","","17 Old Street","","Virginia Beach","","FL","","93636","","True",""
"In1","435-49-9283","Hensley","","Leah","","650-855-7553","","129 Second Boulevard","","Long Beach","","PA","","45601","","True",""
"In1","436-11-0379","Rice","","Cedric","","829-0569202","","181 North Fabien Way","","New Orleans","","AZ","","25798","","True",""
"In1","436-76-1653","Craig","","Jon","","278-5386416","","57 South White Second Way","","Louisville","","UT","","60836","","False",""
"In1","436-79-6317","Prince","","Katie","","340-1977854","","43 Green Oak St.","","Austin","","NV","","05021","","False",""
"In1","437-15-5485","Adams","","Whitney","","3352788823","","104 Fabien Street","","Miami","","NE","","23313","","True",""
"In1","437-84-1956","Durham","","Joel","","126-010-7514","","216 Nobel Avenue","","Wichita","","AZ","","91207","","False",""
"In1","438-82-0771","Walters","","Pamela","","5679742734","","33 Rocky Hague Way","","Spokane","","OK","","79274","","False",""
"In1","438-83-8557","Bray","","Audra","","694-2981447","","987 Clarendon Avenue","","Glendale","","NC","","09605","","True",""
"In1","439-13-2916","Parrish","","Celeste","","960-462-5814","","377 Clarendon Boulevard","","Portland","","MT","","60808","","True",""
"In1","440-94-0038","Knight","","Wendell","","445726-2132","","75 Rocky Cowley Boulevard","","Spokane","","ID","","65606","","True",""
"In1","441-00-3107","Norris","","Darryl","","1900693754","","34 West Oak Freeway","","Rochester","","NC","","79770","","False",""
"In1","442-23-2490","Baldwin","","Amber","","666-4258224","","553 Milton Avenue","","Anaheim","","OK","","42301","","True",""
"In1","442-85-2671","Collier","","Andrea","","8962711315","","95 Second Street","","Detroit","","SC","","56123","","True",""
"In1","443-51-0933","Keller","","Michele","","9680679490","","983 Milton Parkway","","Richmond","","NH","","26816","","False",""
"In1","444-91-2208","Wolfe","","Marcie","","159-867-3850","","238 First Freeway","","Arlington","","RI","","90458","","False",""
"In1","446-58-2731","Mathis","","Julia","","798-362-8905","","853 South First Road","","St. Paul","","KY","","31154","","True",""
"In1","449-34-2662","Sullivan","","Ramon","","2449514553","","91 Green Second Road","","<NULL>","","VT","","49402","","True",""
"In1","450-41-8552","Richardson","","Katie","","820-7769134","","392 First Road","","Indianapolis","","NV","","88717","","False",""
"In1","450-83-9969","Contreras","","Tonia","","599884-6188","","24 New Street","","Denver","","WY","","80857","","False",""
"In1","451-77-2047","Butler","","Tracey","","191919-5984","","698 Old Drive","","Arlington","","ND","","97158","","True",""
"In1","453-29-2826","Ayala","","Tricia","","466-9423575","","68 Rocky Milton St.","","San Francisco","","CT","","59080","","False",""
"In1","453-59-7435","Mc Daniel","","Geoffrey","","0812937218","","708 Old Boulevard","","Fort Wayne","","OH","","97494","","False",""
"In1","453-74-0445","Marsh","","Erick","","996549-4032","","526 Nobel Avenue","","Arlington","","DE","","20856","","True",""
"In1","454-68-6766","Figueroa","","Leon","","3784047530","","692 Hague Street","","Tacoma","","MA","","58331","","False",""
"In1","457-42-0093","Barr","","Francisco","","646060-5101","","862 North Nobel Freeway","","Tacoma","","IA","","09433","","False",""
"In1","457-55-4310","Rodriguez","","Diana","","597871-1466","","409 White Second Blvd.","","Long Beach","","MT","","53976","","True",""
"In1","458-57-9108","Levine","","Angelia","","4347474770","","380 Green Clarendon Drive","","Tacoma","","MD","","77635","","True",""
"In1","459-27-2169","Chavez","","Carmen","","3503620202","","966 New St.","","Grand Rapids","","RI","","11435","","False",""
"In1","459-76-6024","Hodges","","Kenny","","925-3621073","","12 Cowley Parkway","","Riverside","","OR","","48132","","False",""
"In1","460-07-1905","Key","","Arthur","","2495972625","","173 Rocky Clarendon Way","","Aurora","","WV","","03802","","False",""
"In1","465-19-5158","Hanna","","Stacey","","0055320440","","459 West Cowley Way","","Toledo","","MS","","47084","","True",""
"In1","465-34-6643","Chapman","","Alberto","","927-9875729","","187 Fabien Freeway","","Fort Worth","","OK","","18577","","True",""
"In1","467-83-7690","Riddle","","Tiffany","","873-5942192","","725 Milton Freeway","","Minneapolis","","NH","","10541","","False",""
"In1","467-86-6398","Cain","","Natalie","","4521884937","","398 South Fabien Parkway","","Houston","","NJ","","62121","","True",""
"In1","468-84-6524","Burch","","Mandi","","305-139-6736","","487 East First Road","","Albuquerque","","NY","","98935","","True",""
"In1","469-09-1866","Fuller","","Yvette","","9587752393","","936 Old Parkway","","Las Vegas","","MS","","35433","","False",""
"In1","469-39-1591","Hogan","","Ginger","","2583432183","","232 Rocky Nobel Drive","","Birmingham","","SD","","33140","","True",""
"In1","470-26-3666","Hartman","","Tomas","","8119987747","","515 Green Oak Avenue","","Tucson","","LA","","97302","","True",""
"In1","472-25-5361","Patton","","Doris","","424-426-2206","","139 Clarendon Way","","Santa Ana","","HI","","85479","","False",""
"In1","472-47-2343","Cooley","","Johnny","","660193-3128","","468 Milton Parkway","","Colorado","","FL","","04727","","False",""
"In1","472-58-0330","Wilkins","","Jenifer","","571648-1466","","48 North White Second Road","","Colorado","","MD","","81527","","False",""
"In1","472-74-3379","Harper","","Christi","","421-292-1630","","875 South Hague Blvd.","","Mobile","","ID","","52410","","False",""
"In1","472-83-9006","Zamora","","Constance","","093-107-6243","","745 North Rocky Oak Street","","St. Louis","","OR","","84587","","False",""
"In1","474-59-8546","Riddle","","Edward","","062-494-3190","","13 South Green Nobel St.","","Detroit","","SD","","02029","","True",""
"In1","478-43-5752","Bradshaw","","Richard","","421-0114546","","45 Rocky Oak Road","","Dayton","","OR","","16144","","True",""
"In1","478-99-7748","Shaffer","","Jake","","025514-6553","","<NULL>","","Grand Rapids","","AR","","31861","","True",""
"In1","479-48-3491","Vazquez","","Jenny","","234181-9603","","93 Rocky First Avenue","","Colorado","","VA","","71686","","True",""
"In1","480-88-1126","Harrell","","Margarita","","3642927261","","658 First St.","","Oakland","","ND","","74006","","True",""
"In1","481-14-9724","White","","Jeannie","","7109964453","","231 Green Second Freeway","","Shreveport","","HI","","72063","","False",""
"In1","481-71-7611","Dudley","","Penny","","147-645-1976","","88 Old Blvd.","","Oklahoma","","NE","","41807","","True",""
"In1","482-09-8706","Newman","","Theresa","","001-3431492","","74 Clarendon Drive","","Greensboro","","NY","","57946","","True",""
"In1","482-52-8115","Williamson","","Dante","","255-9745712","","668 New Parkway","","Baltimore","","MD","","95642","","False",""
"In1","483-19-5446","Crawford","","Tamiko","","208-593-5503","","43 West Clarendon Street","","Albuquerque","","IN","","62950","","True",""
"In1","485-25-8960","Ashley","","Tyler","","239-7036758","","11 South White Hague Drive","","Mobile","","SD","","63717","","False",""
"In1","485-68-6520","Thornton","","Randolph","","296-656-9676","","60 Cowley Blvd.","","Albuquerque","","MN","","61003","","True",""
"In1","486-92-3596","Moses","","Frederick","","4645349582","","20 Milton St.","","Raleigh","","WA","","29687","","True",""
"In1","489-16-0895","Callahan","","Eric","","137-965-4295","","565 Rocky Fabien Road","","Wichita","","VA","","65696","","False",""
"In1","489-69-7213","Campbell","","Charles","","673434-7584","","445 First St.","","Jackson","","NE","","86561","","False",""
"In1","492-89-8131","Dodson","","Grace","","9780416710","","922 White Fabien Avenue","","Cleveland","","WA","","12118","","False",""
"In1","493-10-4062","Morris","","Rhonda","","521105-1123","","268 Oak Parkway","","Tucson","","MT","","62440","","False",""
"In1","493-87-8123","Peck","","Dan","","250-228-4537","","181 White Old Avenue","","Baltimore","","<NULL>","","40310","","True",""
"In1","494-17-8591","Burke","","Lamar","","355-2002860","","744 Cowley Freeway","","Minneapolis","","NH","","66311","","True",""
"In1","495-23-9407","Ho","","Shana","","416-313-4697","","33 Fabien Way","","Glendale","","IA","","89200","","False",""
"In1","496-42-4288","Andersen","","Tony","","228-135-9187","","45 Rocky Fabien Parkway","","San Diego","","FL","","31189","","True",""
"In1","498-81-3981","Sanders","","Traci","","983708-4618","","50 Cowley Blvd.","","Chicago","","MI","","90584","","True",""
"In1","500-04-8353","Figueroa","","Marco","","856777-8280","","52 East Nobel Drive","","Hialeah","","WY","","13136","","False",""
"In1","501-29-0840","Mccall","","Darryl","","564485-8037","","20 Rocky Hague Boulevard","","Memphis","","NE","","65497","","True",""
"In1","503-00-4447","Bates","","Cara","","081-610-6430","","834 Cowley Blvd.","","St. Petersburg","","GA","","13468","","False",""
"In1","503-96-0046","Rhodes","","Grant","","535-8692223","","89 East Hague Road","","Bakersfield","","KY","","34042","","True",""
"In1","504-51-9367","Freeman","","Andre","","147-566-3919","","924 Hague Road","","Lubbock","","TX","","75111","","True",""
"In1","505-28-2848","Woodward","","Denise","","2352800398","","42 Fabien Avenue","","Dayton","","NY","","97694","","True",""
"In1","505-98-8434","Eaton","","Nora","","312-067-5304","","143 Rocky Milton Way","","Jackson","","AR","","83477","","True",""
"In1","506-31-2666","Heath","","Elias","","5491666408","","53 Cowley Parkway","","Fort Wayne","","FL","","78208","","True",""
"In1","506-90-3158","Compton","","Zachary","","443-161-2084","","323 North Clarendon Way","","Portland","","VA","","02576","","False",""
"In1","507-51-6751","Yang","","Dean","","370-9501971","","370 Green Hague Drive","","Minneapolis","","NY","","88931","","True",""
"In1","508-36-1827","Warner","","Kristy","","849-3202612","","11 North Hague St.","","Lubbock","","OR","","38753","","True",""
"In1","509-22-7134","Preston","","Chasity","","036-243-3605","","822 Green First Freeway","","Dayton","","PA","","61610","","False",""
"In1","509-96-7095","Roy","","Kelvin","","870169-8311","","98 Green Fabien Parkway","","Wichita","","NH","","18875","","False",""
"In1","511-25-3594","Simpson","","Dion","","4239772508","","46 Rocky Clarendon Blvd.","","Fresno","","CO","","21056","","False",""
"In1","512-39-0777","Pham","","Bridgett","","492-394-6138","","71 White Second Boulevard","","Bakersfield","","NJ","","18417","","False",""
"In1","514-47-2134","Snow","","Bridget","","919-820-6920","","<NULL>","","Shreveport","","OR","","19970","","False",""
"In1","516-95-7184","Parks","","Marilyn","","1052369154","","35 Rocky Fabien Drive","","Denver","","NH","","56874","","False",""
"In1","517-08-4859","Savage","","Monica","","7443722240","","988 East Rocky Fabien Blvd.","","Jersey","","AZ","","55828","","False",""
"In1","517-41-5291","Bradley","","Leigh","","0655325286","","70 East Green Clarendon St.","","Arlington","","FL","","90166","","True",""
"In1","518-67-8288","Andersen","","Dan","","614-007-2832","","109 Green Hague Street","","Portland","","OR","","56678","","False",""
"In1","519-70-1868","Carson","","Yesenia","","2322009832","","95 South Rocky First Street","","Seattle","","TN","","10062","","True",""
"In1","520-44-7308","Burch","","Sabrina","","5531365070","","366 Green Fabien Avenue","","Kansas","","OK","","24480","","False",""
"In1","521-50-2862","Jefferson","","Naomi","","8659713093","","269 First Way","","Lincoln","","WY","","46127","","False",""
"In1","521-86-3362","Pennington","","Kristie","","7318629128","","640 Milton Freeway","","St. Paul","","PA","","06468","","True",""
"In1","522-06-3906","Cuevas","","Tonya","","412-5688903","","731 White Old Street","","Charlotte","","MS","","41498","","False",""
"In1","522-14-8688","Valentine","","Noel","","124-8692895","","63 Rocky First Boulevard","","Tucson","","NY","","21605","","False",""
"In1","522-40-9769","Montoya","","Christie","","717-8365007","","310 Cowley Freeway","","Milwaukee","","MT","","33836","","False",""
"In1","524-64-3860","Kaiser","","Alyssa","","445672-4778","","25 White New Drive","","Mobile","","KS","","28396","","True",""
"In1","525-28-8690","Frye","","Anitra","","402-926-1687","","125 Old Parkway","","Cincinnati","","LA","","26805","","True",""
"In1","525-38-8955","Shaffer","","Mike","","890-1121522","","999 Oak Blvd.","","Fort Wayne","","WV","","78191","","True",""
"In1","525-75-2288","Cooper","","Sherry","","9043450687","","572 South Rocky Nobel Drive","","Oklahoma","","IA","","29773","","True",""
"In1","525-86-0882","Vaughan","","Trisha","","6650793291","","776 South Rocky Old Drive","","Grand Rapids","","OH","","11772","","False",""
"In1","526-14-8306","Ball","","Tracie","","189-4190336","","472 West Hague Road","","Lubbock","","UT","","29722","","True",""
"In1","527-40-5012","Barber","","Joel","","4894704208","","97 South Green Cowley Freeway","","San Antonio","","IL","","79667","","True",""
"In1","528-45-2554","Delacruz","","Alissa","","9470778790","","916 North Green Fabien Street","","Greensboro","","WY","","40449","","False",""
"In1","530-09-2056","Schneider","","Dustin","","0752064117","","23 White Old Parkway","","Boston","","VA","","95693","","False",""
"In1","531-25-0405","Winters","","Albert","","1033191547","","43 Old Drive","","Corpus Christi","","OH","","89126","","False",""
"In1","532-05-4564","Wolf","","Audra","","535505-8842","","601 North Rocky Fabien Boulevard","","Santa Ana","","VT","","28287","","True",""
"In1","532-39-8407","Sanchez","","Natalie","","969-132-9475","","417 Green First Road","","San Francisco","","HI","","14637","","True",""
"In1","532-98-2446","Brewer","","Seth","","802-209-4936","","54 Old Parkway","","San Jose","","CO","","54721","","True",""
"In1","533-21-9571","Braun","","Carlton","","533-664-1564","","30 Oak Drive","","Long Beach","","WY","","76897","","True",""
"In1","534-07-9435","Freeman","","Dianna","","557-3185326","","430 Second Freeway","","Yonkers","","GA","","69921","","False",""
"In1","534-59-4007","Mc Bride","","Steven","","5940101182","","49 Rocky Oak St.","","Santa Ana","","AL","","26801","","False",""
"In1","535-81-4645","Townsend","","Taryn","","9321388813","","14 East Oak Boulevard","","Madison","","VT","","60391","","True",""
"In1","537-01-4616","Robinson","","Eric","","6206645639","","68 West Cowley Street","","San Jose","","SC","","24424","","True",""
"In1","537-47-5501","Haynes","","Laura","","9783899712","","85 East White First Road","","Dallas","","NH","","26907","","True",""
"In1","540-26-3606","Blackburn","","Felicia","","330-993-2783","","40 West Old Freeway","","Raleigh","","NJ","","74151","","True",""
"In1","540-43-5142","Mayer","","Frances","","904067-3981","","370 West Cowley Way","","Las Vegas","","NV","","62008","","True",""
"In1","540-97-1869","Galloway","","Shana","","527-226-9051","","786 Green Fabien Boulevard","","Indianapolis","","NV","","80807","","True",""
"In1","542-32-3074","Lindsey","","Michele","","659026-1687","","258 East Rocky Nobel Blvd.","","Greensboro","","NM","","44725","","True",""
"In1","543-23-3633","Nash","","Danny","","679-4901448","","88 West Clarendon Way","","Montgomery","","CA","","85300","","True",""
"In1","544-59-3001","Paul","","Deanna","","751-1069644","","308 South Clarendon Way","","Fresno","","MT","","04146","","True",""
"In1","546-17-5402","Smith","","Clifford","","639-536-6240","","122 East Green Milton Blvd.","","Mesa","","LA","","58411","","False",""
"In1","547-91-1103","Morse","","Franklin","","0830545332","","19 North Nobel Drive","","Houston","","SD","","32390","","False",""
"In1","548-81-6330","Faulkner","","Emily","","657-3698762","","13 Green New Drive","","Washington","","MO","","16955","","False",""
"In1","551-43-0778","Gallagher","","Keisha","","457-405-2299","","61 White Clarendon Road","","Long Beach","","HI","","84088","","False",""
"In1","553-97-3197","Jarvis","","Zachary","","576-3041979","","63 Green Oak Blvd.","","Baton Rouge","","NJ","","15986","","False",""
"In1","554-92-1527","Leach","","Sherman","","7731092962","","486 Rocky Fabien Avenue","","Anaheim","","AZ","","97075","","True",""
"In1","554-96-0232","Pratt","","Vanessa","","1673005260","","40 Rocky Second Freeway","","Baton Rouge","","MD","","09151","","True",""
"In1","555-78-1562","Nicholson","","Henry","","3414275485","","99 East Green Milton Boulevard","","Cleveland","","VA","","65633","","False",""
"In1","559-38-1724","Giles","","Suzanne","","847509-4309","","489 Hague St.","","Lincoln","","IN","","84652","","False",""
"In1","560-90-4822","Krueger","","Bobby","","1611287660","","577 Oak Way","","<NULL>","","HI","","51724","","True",""
"In1","561-67-0592","Potter","","John","","3061562516","","15 Clarendon Avenue","","Arlington","","LA","","72301","","True",""
"In1","562-38-1366","Knox","","Nakia","","199-0457621","","224 White Hague Street","","Cincinnati","","GA","","67184","","True",""
"In1","562-46-4515","Cannon","","Brooke","","514-6471499","","825 Second Way","","Aurora","","AK","","61313","","False",""
"In1","562-53-6861","Shepherd","","Manuel","","486-1389031","","72 First St.","","Fremont","","KS","","41168","","False",""
"In1","564-02-0055","Walton","","Alice","","383-7182999","","786 Green Milton Way","","Dayton","","GA","","11073","","True",""
"In1","564-44-1867","Riggs","","Angie","","892-4261800","","297 Green First Avenue","","Las Vegas","","WY","","08293","","False",""
"In1","565-00-1604","Woods","","Carolyn","","553-607-5833","","76 Clarendon Drive","","<NULL>","","MO","","89605","","False",""
"In1","565-29-6323","Christian","","Dwayne","","5198671427","","49 Green First St.","","Tacoma","","WV","","95290","","False",""
"In1","565-39-8257","Graham","","Terrance","","502517-6687","","70 West Fabien Boulevard","","Pittsburgh","","CT","","42667","","True",""
"In1","566-62-3054","Turner","","Jeffery","","446-764-5331","","827 West Rocky Cowley Road","","St. Petersburg","","NV","","72488","","False",""
"In1","568-18-9404","Foley","","Amy","","262-6172984","","330 Green Second Way","","Nashville","","NM","","00911","","True",""
"In1","570-42-1153","Beltran","","Johnnie","","3716834500","","45 South Rocky Oak Freeway","","Tulsa","","MA","","74053","","True",""
"In1","570-48-4876","Larsen","","Claudia","","4032337537","","42 Rocky Clarendon Boulevard","","Los Angeles","","CO","","60455","","False",""
"In1","571-06-9415","Sherman","","Bobbie","","966975-4790","","888 Hague Avenue","","Los Angeles","","MN","","09521","","True",""
"In1","574-39-0046","Fleming","","Zachary","","482852-0963","","766 South Rocky First Way","","Minneapolis","","PA","","70551","","False",""
"In1","574-49-6757","Boyle","","Wesley","","585-331-6902","","171 New Road","","Phoenix","","GA","","17467","","False",""
"In1","574-61-0551","Bender","","Connie","","939-291-0129","","19 White Cowley Drive","","Newark","","PA","","91041","","False",""
"In1","575-04-0698","Mahoney","","Doris","","772425-1679","","44 New Boulevard","","Shreveport","","RI","","19020","","False",""
"In1","575-32-6865","Castaneda","","Gene","","973-8190658","","787 Old Blvd.","","Baton Rouge","","MN","","91308","","False",""
"In1","576-33-1324","Morales","","Aaron","","8371799659","","94 North Fabien Blvd.","","Santa Ana","","MD","","77666","","True",""
"In1","576-90-8757","Winters","","Alisa","","337029-4576","","163 Oak Boulevard","","Madison","","ID","","71039","","False",""
"In1","576-98-4537","Morris","","Salvatore","","6508445244","","40 North Rocky Old Way","","Houston","","KY","","57284","","True",""
"In1","577-21-3425","Tyler","","Shawna","","543-333-3210","","94 First Way","","Arlington","","OR","","64117","","False",""
"In1","578-83-0692","Hardin","","Vernon","","533963-5871","","22 Green Fabien Drive","","Lincoln","","OK","","88708","","True",""
"In1","579-31-6512","Powers","","Felix","","9061442493","","679 West Rocky Cowley Blvd.","","Hialeah","","NY","","66146","","True",""
"In1","580-93-4508","Barrett","","Edward","","0620981541","","58 White Oak Blvd.","","Detroit","","WV","","97715","","True",""
"In1","582-75-1525","Berger","","Austin","","057493-6175","","778 Rocky Milton Drive","","Bakersfield","","WA","","69949","","True",""
"In1","582-85-0967","Beltran","","Jeffery","","563331-6162","","42 South Clarendon Road","","Fort Worth","","SD","","41527","","True",""
"In1","583-56-9745","Bryant","","Kristin","","937-5049873","","731 White Second Blvd.","","El Paso","","MN","","53116","","True",""
"In1","584-25-9220","Fry","","Damian","","4526921661","","41 Fabien Freeway","","El Paso","","KY","","14352","","True",""
"In1","584-45-8986","Fischer","","Brenda","","253-428-4865","","21 West Nobel Freeway","","Cincinnati","","WY","","52303","","False",""
"In1","585-22-6730","Holden","","Hugh","","926-9643169","","45 Green First Road","","Chicago","","ME","","44330","","True",""
"In1","588-33-9820","Burgess","","Efrain","","638-002-2319","","59 South First Freeway","","Milwaukee","","CO","","50940","","True",""
"In1","591-26-0635","Jenkins","","Tasha","","446-7065435","","72 White Nobel Blvd.","","San Francisco","","NV","","89005","","False",""
"In1","591-34-6399","Duran","","Irma","","3699926561","","14 East Green Nobel Freeway","","Houston","","NJ","","55349","","False",""
"In1","592-15-6523","Maxwell","","Darin","","829412-0412","","978 Hague Parkway","","Santa Ana","","MO","","46487","","False",""
"In1","594-12-8589","Pope","","Damion","","782-970-5892","","658 Rocky Hague Boulevard","","Des Moines","","AL","","12781","","True",""
"In1","594-57-0615","Alvarez","","Summer","","5396909365","","65 West Hague St.","","Jackson","","OK","","46724","","True",""
"In1","594-61-6755","Phelps","","Terry","","5108952975","","583 North Green New Street","","St. Petersburg","","NV","","97933","","True",""
"In1","595-59-9976","Graves","","Phillip","","077-3368237","","95 First St.","","Richmond","","AR","","22485","","True",""
"In1","596-50-0259","Newman","","Roy","","186692-0731","","19 East Oak Street","","San Jose","","SD","","34676","","False",""
"In1","596-80-6536","Estes","","Ramiro","","154-012-3943","","65 Rocky Fabien Drive","","Santa Ana","","MT","","02911","","True",""
"In1","598-18-5292","Chan","","Sally","","823-095-2572","","81 New Way","","Santa Ana","","ND","","65916","","True",""
"In1","598-66-9364","Joseph","","Nathaniel","","642-542-2438","","220 White First Parkway","","Arlington","","RI","","34452","","True",""
"In1","599-32-1640","Nelson","","Aaron","","341-693-1674","","113 White Milton Way","","St. Petersburg","","NV","","90148","","True",""
"In1","600-10-1997","Webster","","Tracie","","1188861163","","50 Clarendon Drive","","Denver","","ID","","74384","","True",""
"In1","600-13-7352","Shaw","","Adam","","3146981125","","48 Second Parkway","","Fort Wayne","","IN","","45421","","False",""
"In1","600-70-4386","Mc Clure","","Camille","","164855-8049","","56 Cowley Freeway","","San Jose","","CT","","43702","","False",""
"In1","601-14-5720","Cannon","","Nikki","","5624834866","","827 Green Clarendon Road","","Colorado","","TN","","62220","","False",""
"In1","601-55-2513","Wilcox","","Latasha","","991-240-6175","","562 South White Cowley Way","","Akron","","OH","","98908","","True",""
"In1","602-45-8367","Bautista","","Kristine","","6257155322","","355 West White Cowley Parkway","","Long Beach","","MI","","45207","","False",""
"In1","603-81-3639","Wise","","Roland","","505597-7160","","133 Green Clarendon Way","","Riverside","","TX","","91083","","False",""
"In1","604-08-1867","Zhang","","Doris","","915-9849948","","40 Green Fabien Parkway","","Nashville","","IL","","55340","","False",""
"In1","604-27-9669","Bauer","","Angelique","","208-250-8876","","98 East Fabien Boulevard","","Tulsa","","WA","","03689","","True",""
"In1","606-69-3243","Duran","","Patrice","","074-087-4474","","83 Second Way","","Rochester","","NY","","70742","","False",""
"In1","607-24-5871","Thornton","","Jamal","","569-423-4704","","20 Old Boulevard","","Norfolk","","CO","","67287","","False",""
"In1","607-95-4174","Bradford","","Warren","","196-829-1345","","<NULL>","","Newark","","AZ","","<NULL>","","True",""
"In1","608-09-8563","Mills","","Jill","","794-804-8458","","661 Rocky Oak Blvd.","","San Francisco","","ID","","72643","","False",""
"In1","608-15-9537","Molina","","Beverly","","6123268322","","770 North Green Milton Parkway","","Oakland","","VA","","26568","","False",""
"In1","608-62-8438","Colon","","Christa","","097-319-6311","","135 West Oak Street","","Columbus","","SD","","78940","","False",""
"In1","615-16-2153","Waters","","Gavin","","0398352585","","575 Fabien St.","","Tucson","","UT","","23102","","False",""
"In1","615-46-4120","Browning","","Sheldon","","146873-4156","","279 White First Way","","Minneapolis","","NE","","61001","","True",""
"In1","616-77-3511","Calderon","","Francis","","031-2801003","","96 South Second Parkway","","Grand Rapids","","WY","","42455","","False",""
"In1","616-78-2885","Nelson","","Sally","","410046-2418","","69 White Clarendon Way","","Fremont","","WA","","90365","","True",""
"In1","616-89-7888","Lane","","Douglas","","2145724518","","853 Cowley Blvd.","","<NULL>","","UT","","54563","","False",""
"In1","618-37-3516","Roy","","Jennie","","223333-8667","","845 Nobel Parkway","","Wichita","","NC","","97833","","False",""
"In1","618-96-2318","Rollins","","Teddy","","972-2178611","","33 Rocky Second Road","","Fremont","","PA","","45584","","True",""
"In1","621-29-9628","Calhoun","","Bryce","","284-460-5328","","91 Oak Freeway","","Milwaukee","","WA","","11567","","True",""
"In1","625-61-4600","Conley","","Allan","","080426-6620","","862 Green Milton Avenue","","Charlotte","","NM","","59973","","False",""
"In1","628-36-2946","Lam","","Donald","","427-821-3615","","38 White Fabien Street","","Tacoma","","TX","","22109","","True",""
"In1","628-60-3979","West","","Joe","","052-3007652","","64 Old Parkway","","Portland","","MO","","09965","","False",""
"In1","629-44-9170","Sullivan","","Duane","","013510-2417","","73 New Blvd.","","Baton Rouge","","MI","","09457","","False",""
"In1","629-49-5585","Montes","","Levi","","164-3579114","","222 Green Nobel Way","","Fort Wayne","","KY","","26088","","False",""
"In1","629-65-3503","Cherry","","Trent","","482953-4531","","684 West First St.","","Chicago","","TN","","53532","","True",""
"In1","629-90-4202","Ibarra","","Evelyn","","2282345374","","923 Clarendon Avenue","","Arlington","","SD","","20350","","False",""
"In1","632-03-8411","Nelson","","Lara","","3775517847","","89 White Old St.","","Charlotte","","TX","","84386","","False",""
"In1","632-19-4271","Clements","","Stephan","","873-559-7172","","49 Green Nobel Street","","Los Angeles","","VA","","36788","","False",""
"In1","632-29-7512","Ramos","","Vickie","","355416-5920","","955 Nobel Street","","Philadelphia","","UT","","38641","","True",""
"In1","635-80-9040","Arias","","Marisol","","423331-9937","","11 Fabien Street","","Mesa","","NH","","31381","","True",""
"In1","636-73-7045","Richardson","","Darlene","","670-3631950","","144 West Rocky Cowley Blvd.","","Washington","","KY","","36527","","True",""
"In1","637-50-0457","House","","Charlie","","995802-8980","","504 First Blvd.","","Baltimore","","MI","","10105","","False",""
"In1","637-98-9296","Bond","","Felipe","","6784324686","","478 Fabien Blvd.","","Baton Rouge","","PA","","78033","","False",""
"In1","639-56-7333","Anderson","","Cindy","","311-102-6569","","372 Old Parkway","","Aurora","","GA","","71171","","False",""
"In1","639-90-7107","Sexton","","Terri","","932-654-6729","","195 Green First Drive","","Yonkers","","NM","","48444","","True",""
"In1","640-23-3031","Singleton","","Bridget","","135-421-0473","","720 First St.","","Madison","","NJ","","61573","","True",""
"In1","642-04-6774","Petty","","Cecilia","","990-8560277","","467 White Old Parkway","","Minneapolis","","MO","","84100","","False",""
"In1","646-72-6398","Villegas","","Tamara","","600-424-3726","","64 White Cowley Drive","","Baton Rouge","","AL","","24466","","True",""
"In1","648-44-2035","Ho","","Catherine","","583754-8292","","275 North Hague Way","","Fremont","","WV","","46202","","False",""
"In1","650-13-6911","Farley","","Christina","","236759-0553","","21 Milton Street","","Anchorage","","NM","","09212","","True",""
"In1","650-61-3268","Doyle","","Norma","","244738-8237","","626 New Way","","Fort Wayne","","TN","","77280","","False",""
"In1","652-32-9654","Price","","Alejandro","","986031-4498","","294 New Blvd.","","Louisville","","AR","","58963","","False",""
"In1","653-45-2782","Dennis","","Jodi","","2223017068","","690 New Avenue","","Montgomery","","NE","","67290","","True",""
"In1","654-67-5246","Orr","","Matt","","6172836869","","97 Old Parkway","","Toledo","","WV","","44570","","True",""
"In1","655-67-6865","Cunningham","","Brad","","393-712-1576","","13 Rocky New Boulevard","","Des Moines","","MI","","71466","","True",""
"In1","658-60-5022","Costa","","Billie","","8138791414","","723 North New Avenue","","Detroit","","MS","","20916","","True",""
"In1","659-20-2586","Gentry","","Belinda","","4883371421","","982 East White Second St.","","Santa Ana","","WA","","18765","","True",""
"In1","660-52-8017","Norris","","Albert","","571-7226360","","172 Green Old Avenue","","Hialeah","","MA","","95603","","False",""
"In1","661-66-0198","Arroyo","","Hope","","813-248-1458","","709 West Milton Blvd.","","Hialeah","","IL","","48259","","True",""
"In1","662-38-5383","Beltran","","Cara","","5240950976","","38 Fabien Street","","Omaha","","NV","","55442","","False",""
"In1","664-27-6643","Pugh","","Kari","","466-038-3436","","304 North Green Clarendon Boulevard","","Chicago","","MS","","31051","","False",""
"In1","664-32-4104","Wu","","Tracy","","836-7656020","","223 Green First Avenue","","Mesa","","MN","","24079","","False",""
"In1","664-79-1981","Franco","","Ian","","672-909-5909","","67 Rocky Hague Freeway","","Baltimore","","UT","","84597","","True",""
"In1","665-03-2230","Hancock","","Erick","","3096749318","","472 New Blvd.","","Oklahoma","","NJ","","54710","","True",""
"In1","665-03-8947","Garza","","Ian","","799-997-3942","","729 Fabien St.","","Honolulu","","AZ","","33248","","False",""
"In1","666-00-8212","Bullock","","Rafael","","623585-7153","","126 New Freeway","","Anchorage","","HI","","63584","","False",""
"In1","666-85-8410","Schaefer","","Candace","","692-367-6127","","82 Clarendon Boulevard","","Stockton","","MT","","71669","","False",""
"In1","667-77-2952","Orr","","Alisa","","956-6751506","","884 West Green Fabien Avenue","","Fort Worth","","ND","","18639","","False",""
"In1","669-46-6204","Romero","","Amie","","165-139-5438","","48 Rocky Fabien Drive","","Buffalo","","NJ","","38518","","False",""
"In1","671-97-1998","Love","","Dan","","528-072-3195","","528 Cowley Avenue","","Bakersfield","","SD","","19980","","True",""
"In1","672-83-0864","Strickland","","Tracey","","749-849-1047","","570 Rocky Cowley Freeway","","Columbus","","CO","","79523","","False",""
"In1","673-88-2145","Hebert","","Duane","","325-176-0672","","92 New Freeway","","St. Paul","","CO","","00140","","False",""
"In1","674-17-9990","Shelton","","Omar","","284-179-8717","","83 Green Cowley Freeway","","Indianapolis","","AL","","11896","","False",""
"In1","674-98-4191","Roy","","Vernon","","4925538346","","606 Rocky New Avenue","","Long Beach","","GA","","52902","","False",""
"In1","675-16-4286","Lynn","","Diana","","412-605-6686","","505 Rocky Second St.","","New Orleans","","VT","","32737","","True",""
"In1","675-57-1731","Mc Intyre","","Dexter","","603744-4741","","15 Rocky New Blvd.","","Corpus Christi","","UT","","21682","","True",""
"In1","675-78-4796","Morton","","Johnathan","","7836426422","","43 New Boulevard","","Mobile","","CO","","97960","","True",""
"In1","675-85-0596","Golden","","Lloyd","","247833-6567","","638 Cowley Way","","Bakersfield","","MD","","18354","","False",""
"In1","676-68-2791","Baker","","Demond","","2145855018","","96 Oak Drive","","St. Petersburg","","DE","","83452","","False",""
"In1","676-82-7281","Chapman","","Alexander","","882896-0095","","44 Clarendon Avenue","","New York","","WY","","22382","","True",""
"In1","677-20-3792","Leonard","","Keisha","","8139839274","","292 East Milton Avenue","","Fresno","","MO","","36494","","True",""
"In1","678-53-4092","Hester","","Emma","","630-6220981","","572 Hague Road","","Jersey","","TN","","27822","","True",""
"In1","680-88-0746","Saunders","","Lamont","","363752-6817","","500 Cowley Road","","Raleigh","","WI","","58197","","False",""
"In1","680-91-4674","Bryant","","Aaron","","090-6468272","","893 Oak Parkway","","Colorado","","GA","","61283","","True",""
"In1","681-09-9421","Kirby","","Sharon","","369308-6562","","95 Green Oak Boulevard","","Phoenix","","MN","","40098","","False",""
"In1","683-14-2471","Townsend","","Jesus","","8189759099","","67 East White Milton Blvd.","","St. Petersburg","","MS","","91516","","True",""
"In1","684-26-8421","Webster","","Chanda","","359900-3416","","30 Second Street","","Dallas","","MT","","99448","","True",""
"In1","684-32-1161","Solis","","Abel","","9981854436","","369 Nobel Avenue","","Detroit","","KY","","46411","","False",""
"In1","684-48-7788","Montes","","Dewayne","","1705776845","","63 North Clarendon Street","","El Paso","","UT","","05734","","True",""
"In1","685-36-4613","Meyers","","Bobbi","","936437-9479","","43 White Second Boulevard","","Miami","","CT","","97505","","False",""
"In1","685-60-9556","Bates","","Tania","","6631762999","","117 Old Road","","Akron","","PA","","88169","","False",""
"In1","686-27-8823","Turner","","Gail","","2902116614","","544 Green New Freeway","","Virginia Beach","","MO","","13020","","False",""
"In1","687-46-7337","Brewer","","Eric","","471887-1251","","54 Old Street","","Fort Worth","","WI","","32320","","False",""
"In1","687-98-5645","Black","","Salvador","","265704-6608","","478 East New Parkway","","Detroit","","WY","","31692","","False",""
"In1","689-10-0474","Ryan","","Jonathon","","945-424-7958","","68 Green Hague Parkway","","Cincinnati","","AR","","96749","","True",""
"In1","690-50-9198","Hoover","","Erica","","6106846678","","843 Green New Freeway","","Raleigh","","OK","","25100","","False",""
"In1","690-94-8328","Reid","","Laurie","","6996494764","","23 Old Road","","Stockton","","MA","","46948","","True",""
"In1","691-21-5240","Roman","","Kristen","","0997445650","","601 West Green New Street","","Raleigh","","IA","","10624","","False",""
"In1","691-92-9902","Novak","","Sonny","","941-834-2381","","338 Nobel Blvd.","","Wichita","","UT","","39322","","False",""
"In1","692-79-7558","Roman","","Mike","","378414-9465","","330 South New Avenue","","Jackson","","DE","","72810","","True",""
"In1","693-90-5501","Beasley","","Keri","","8839200490","","195 Oak Avenue","","Seattle","","SC","","00948","","False",""
"In1","694-50-3698","Zuniga","","Salvador","","563-3847043","","97 Green New Way","","Oakland","","AR","","38523","","True",""
"In1","695-25-1606","Knapp","","Chandra","","686-582-1371","","52 White Oak Street","","Virginia Beach","","HI","","70033","","True",""
"In1","695-89-9689","Hendrix","","Marcy","","459239-1082","","93 Clarendon St.","","Tampa","","DE","","79443","","True",""
"In1","696-61-5561","Hunter","","Dante","","603094-2375","","654 West Milton Blvd.","","Long Beach","","AK","","09904","","False",""
"In1","698-12-2178","Wilkins","","Tonya","","727826-7593","","20 Green Fabien Parkway","","Chicago","","OK","","64645","","True",""
"In1","698-48-1162","Watson","","Jennifer","","412-257-8129","","71 West Second Way","","Milwaukee","","SD","","25886","","False",""
"In1","698-75-1474","Adams","","Harry","","427-3406966","","29 White Second Blvd.","","Cincinnati","","WY","","56234","","False",""
"In1","700-16-3935","Barr","","Darla","","576-193-7835","","98 East Nobel Street","","Columbus","","RI","","71795","","False",""
"In1","701-64-1183","Mathis","","Edwin","","1917150948","","669 Old St.","","San Antonio","","UT","","06759","","True",""
"In1","702-83-5602","Miranda","","Alexis","","267-6878410","","12 Green Fabien Freeway","","Buffalo","","MN","","50950","","False",""
"In1","703-15-3612","Pearson","","Shelia","","9318569733","","163 New Parkway","","Phoenix","","GA","","85152","","True",""
"In1","706-48-8078","Grant","","Karla","","8846347604","","501 North Rocky Fabien Boulevard","","Anaheim","","CA","","67743","","False",""
"In1","710-05-2963","Cannon","","Lesley","","888-403-1088","","168 Rocky Hague Drive","","Arlington","","WA","","11934","","False",""
"In1","710-58-4875","Ramirez","","Dean","","970-1292742","","861 White Clarendon Parkway","","Albuquerque","","KS","","07930","","True",""
"In1","711-71-9903","Morse","","Bonnie","","1694447532","","450 Green Nobel Road","","Grand Rapids","","MT","","41645","","True",""
"In1","713-64-6828","Hall","","Lewis","","089-156-4986","","991 East New St.","","Glendale","","AR","","31566","","False",""
"In1","713-93-1104","Norris","","Brooke","","073-761-2678","","874 Second Way","","Arlington","","DE","","68006","","False",""
"In1","714-78-8253","Pollard","","Damien","","413-412-9883","","27 West Green Old Freeway","","San Antonio","","GA","","13311","","False",""
"In1","715-05-5853","Haas","","Terence","","116-0105588","","863 Nobel Avenue","","Richmond","","VA","","34867","","True",""
"In1","718-87-8514","Nixon","","Latonya","","6369284989","","769 White First Road","","Fremont","","CT","","42984","","False",""
"In1","720-41-2073","Peters","","Clarissa","","731-649-8902","","<NULL>","","Albuquerque","","WI","","86315","","True",""
"In1","721-63-8437","Archer","","Cory","","957195-0802","","53 East New Way","","Indianapolis","","HI","","57147","","False",""
"In1","724-93-1688","Castaneda","","Brett","","598767-3410","","40 Green Hague Avenue","","Glendale","","SC","","99018","","False",""
"In1","727-88-7584","Pierce","","Wendi","","0581444341","","45 South Nobel Street","","Oakland","","OH","","62406","","True",""
"In1","728-19-8692","Moyer","","Ebony","","738086-4411","","394 Rocky Milton Road","","Corpus Christi","","GA","","93469","","True",""
"In1","729-32-4488","Johnston","","Abraham","","924-493-1172","","58 Cowley Way","","Anchorage","","MN","","42014","","False",""
"In1","730-65-7089","Dunn","","Trenton","","168-652-9162","","276 West Green Old Road","","Oakland","","WI","","48365","","False",""
"In1","730-77-6006","Gilmore","","Gregory","","712142-9813","","25 Fabien Drive","","Mobile","","MO","","23330","","True",""
"In1","731-14-1718","Myers","","Alfonso","","6453571713","","801 South Green Second Avenue","","Jersey","","MI","","15083","","False",""
"In1","734-51-7657","Curry","","Dexter","","1634941074","","576 North Oak Blvd.","","Tacoma","","AL","","19535","","False",""
"In1","734-87-4599","Shepard","","Wendy","","811-5790667","","804 White Second St.","","Buffalo","","OH","","54477","","False",""
"In1","735-78-7011","Murillo","","Demetrius","","3594053963","","981 Hague Road","","Rochester","","LA","","46152","","True",""
"In1","736-26-3935","Bond","","Dwayne","","803-7744750","","43 White Cowley Parkway","","Greensboro","","FL","","36712","","False",""
"In1","737-83-0691","Skinner","","Michele","","485-2821018","","95 Milton Boulevard","","San Diego","","OK","","05507","","True",""
"In1","738-00-1975","Downs","","Sherri","","018-641-8503","","183 Nobel Parkway","","Fort Worth","","NY","","01271","","False",""
"In1","738-37-0568","Christian","","Edith","","592-8988000","","95 Cowley Drive","","Honolulu","","SC","","66703","","False",""
"In1","740-82-2722","Trujillo","","Darrell","","007-610-4745","","366 Fabien Avenue","","Grand Rapids","","AK","","38880","","False",""
"In1","741-48-0328","Moyer","","Anita","","9090743215","","16 Rocky Oak Way","","Arlington","","MD","","39476","","False",""
"In1","741-68-8982","Turner","","Marlon","","724-0738083","","739 Nobel Road","","Tampa","","MO","","19539","","True",""
"In1","741-86-4159","Watkins","","Ray","","441739-2436","","11 White Oak Road","","St. Louis","","VA","","46770","","False",""
"In1","741-88-1802","Riley","","Marvin","","665-087-1008","","297 Oak Boulevard","","Fresno","","MS","","74119","","True",""
"In1","742-58-1564","Castaneda","","Marilyn","","911-4530553","","44 New Way","","Rochester","","KY","","95204","","True",""
"In1","744-85-5468","Woods","","Sean","","6162936360","","934 White Hague Parkway","","Long Beach","","FL","","97936","","False",""
"In1","745-13-2180","Faulkner","","Nick","","032-188-5197","","91 Rocky Fabien St.","","Houston","","DE","","50685","","False",""
"In1","746-40-6189","Ellison","","Kristy","","3987199224","","<NULL>","","St. Louis","","RI","","07501","","True",""
"In1","746-82-6676","Bray","","Drew","","989-0731407","","95 Nobel Blvd.","","Lubbock","","OK","","04101","","False",""
"In1","747-06-7587","George","","Shirley","","011292-7943","","98 Old Blvd.","","Akron","","WI","","18866","","False",""
"In1","749-28-8492","Robbins","","Gretchen","","766166-6283","","403 New Parkway","","Rochester","","AK","","46666","","True",""
"In1","749-48-1185","Freeman","","Vickie","","694-7276596","","95 New Street","","Grand Rapids","","AZ","","96688","","True",""
"In1","751-21-3923","Mooney","","Faith","","827-2255931","","40 Cowley Parkway","","Lincoln","","UT","","98473","","True",""
"In1","752-19-8870","Lamb","","Denise","","252-735-6593","","956 Rocky Second Freeway","","Jackson","","SC","","21380","","True",""
"In1","752-59-5391","Harmon","","Jonathon","","066-7157161","","117 Green Clarendon Avenue","","Richmond","","ME","","67354","","False",""
"In1","754-59-9862","Faulkner","","Cari","","893-8040487","","517 White Hague St.","","Baton Rouge","","NM","","34286","","True",""
"In1","755-36-8631","Wood","","Saul","","503-4141182","","28 South Clarendon Freeway","","Montgomery","","HI","","29667","","True",""
"In1","755-77-0383","Ware","","Mickey","","1315415371","","53 South Second Street","","Kansas","","SD","","91811","","False",""
"In1","756-31-0125","Brown","","Candace","","9034652003","","91 Green Nobel Avenue","","Virginia Beach","","NC","","36914","","True",""
"In1","756-63-8854","Gibson","","Jessie","","475-0534715","","20 Rocky Old Way","","Richmond","","HI","","30727","","False",""
"In1","758-78-4392","Murray","","Tammy","","783886-0832","","83 West Cowley Street","","Wichita","","MA","","23954","","True",""
"In1","761-04-3351","Kirby","","Constance","","040235-6501","","662 Rocky Milton Avenue","","Honolulu","","MD","","68009","","False",""
"In1","761-07-6728","Harrison","","Luz","","091402-9663","","24 West Old Boulevard","","Portland","","SC","","32221","","True",""
"In1","761-15-3841","Owen","","Ethan","","7486011607","","954 Old Parkway","","Riverside","","KY","","62602","","True",""
"In1","762-11-7803","Knapp","","Jody","","9987154390","","674 New St.","","Hialeah","","NE","","56820","","False",""
"In1","763-81-4894","Howard","","Sandra","","272325-1813","","757 Rocky Oak Boulevard","","Philadelphia","","UT","","03274","","True",""
"In1","764-71-8286","Suarez","","Abraham","","511-0510477","","665 South Green Clarendon Way","","Dayton","","AK","","98844","","False",""
"In1","764-97-2264","Russell","","Melinda","","759-3128328","","861 Green Second Street","","Minneapolis","","MS","","88410","","True",""
"In1","765-83-8322","Ingram","","Freddie","","080736-4980","","719 Fabien Road","","Atlanta","","NC","","39506","","True",""
"In1","766-17-7105","Myers","","Carolyn","","343-9837620","","57 Cowley Drive","","Fort Wayne","","SC","","10958","","True",""
"In1","769-88-2185","Haley","","Ramiro","","535579-5798","","587 Cowley Boulevard","","Buffalo","","ME","","41795","","True",""
"In1","770-63-1127","Lynch","","Allen","","3595320436","","328 Rocky Clarendon Drive","","Columbus","","PA","","95407","","False",""
"In1","771-82-5558","Dillon","","Robbie","","281784-4448","","48 White Milton St.","","Austin","","DE","","20593","","True",""
"In1","773-11-1098","Stuart","","Milton","","853-5894249","","58 Milton Freeway","","Fort Worth","","TN","","19252","","True",""
"In1","774-08-1658","Reilly","","Abel","","0632529283","","44 Green Cowley Boulevard","","Tampa","","KY","","16644","","True",""
"In1","774-61-2607","Jensen","","Ernest","","599339-6557","","51 Hague Blvd.","","Baton Rouge","","NH","","33629","","True",""
"In1","777-21-9362","Roman","","Steven","","7133913641","","143 West Rocky Fabien Road","","Buffalo","","PA","","50956","","False",""
"In1","778-11-6409","Forbes","","Raul","","095-668-4384","","876 Fabien St.","","Mesa","","WA","","44839","","False",""
"In1","778-22-9213","Grant","","Loren","","961-623-7137","","28 West Green New Freeway","","Pittsburgh","","VA","","13133","","True",""
"In1","779-06-4940","Stone","","Charlotte","","873-1877243","","862 North Cowley Drive","","<NULL>","","UT","","10035","","True",""
"In1","779-11-9807","Herrera","","Celeste","","4739513021","","22 South Milton Drive","","Nashville","","ME","","56855","","True",""
"In1","780-15-2595","Randolph","","Efrain","","833122-5246","","60 Clarendon Blvd.","","Denver","","DE","","56862","","True",""
"In1","780-29-7603","Barton","","Martha","","7443535920","","77 White New Drive","","Tulsa","","WY","","35424","","True",""
"In1","782-31-4725","Galloway","","Kareem","","437277-9663","","20 South Fabien Freeway","","Des Moines","","LA","","87200","","False",""
"In1","783-08-2714","Elliott","","Jeannie","","384-1773886","","455 South Green First Parkway","","Arlington","","CT","","25483","","True",""
"In1","783-39-4245","Ray","","Tameka","","027-3349317","","48 First Street","","Buffalo","","TN","","64574","","False",""
"In1","783-52-3050","Woodward","","Cathy","","390-6649698","","822 Oak Drive","","Boston","","SD","","76868","","False",""
"In1","783-53-5625","Garza","","Beth","","6590634750","","52 White Nobel Drive","","San Francisco","","RI","","02143","","False",""
"In1","784-76-2371","Guerrero","","Timmy","","1755343444","","876 Rocky Milton Street","","Stockton","","WV","","60111","","False",""
"In1","785-35-5489","Anthony","","Micheal","","591-1639404","","900 White Fabien Way","","Fort Wayne","","MS","","86193","","False",""
"In1","786-81-5473","Cooper","","Daniel","","0168306328","","727 Fabien Way","","Louisville","","NC","","00131","","False",""
"In1","788-27-5259","Hahn","","Frankie","","178-2258168","","71 Hague Drive","","New Orleans","","OK","","29074","","False",""
"In1","788-95-7306","Jones","","Amelia","","987-051-8690","","15 Hague Parkway","","Phoenix","","NV","","21027","","True",""
"In1","789-44-6140","Logan","","Jim","","175-365-7378","","13 New Road","","Madison","","NH","","15852","","False",""
"In1","789-86-5885","Sparks","","Dorothy","","1408038410","","228 Rocky Oak Street","","Detroit","","NV","","43556","","False",""
"In1","790-14-8850","Braun","","Jesus","","686-169-1374","","526 Green Nobel Parkway","","Miami","","OR","","54117","","True",""
"In1","790-20-3081","Bernard","","Angie","","851-3674728","","365 Old Avenue","","Miami","","HI","","18867","","True",""
"In1","791-08-5274","Molina","","Jenna","","288384-4714","","75 Rocky Second Avenue","","Madison","","WV","","31557","","True",""
"In1","792-51-4246","Chang","","Theodore","","5355922750","","731 Oak Street","","San Francisco","","LA","","66372","","False",""
"In1","793-43-0123","Bowen","","Seth","","138774-0064","","29 Clarendon St.","","Birmingham","","IA","","81693","","False",""
"In1","793-55-5487","Davies","","Jenifer","","9849957947","","82 Hague Way","","Garland","","WA","","54117","","True",""
"In1","794-83-2949","Pierce","","Shad","","166125-7249","","270 Clarendon Blvd.","","Madison","","OR","","01598","","True",""
"In1","795-26-2851","Dawson","","Leonardo","","365-5495654","","454 North Green Milton Freeway","","Rochester","","NV","","30514","","False",""
"In1","796-05-1312","Mata","","Eva","","374830-9279","","51 Rocky Clarendon Street","","Charlotte","","AZ","","02267","","True",""
"In1","798-08-8722","Reynolds","","Angelo","","938-0187097","","904 West Old Way","","Oakland","","WV","","67447","","True",""
"In1","798-19-5590","Stein","","Omar","","355335-5939","","440 Rocky Fabien Avenue","","New Orleans","","AR","","08059","","True",""
"In1","798-72-8146","Rowland","","Kerri","","417-7201951","","612 Green First Avenue","","Anaheim","","PA","","63820","","False",""
"In1","800-93-8287","Wiggins","","Greg","","422-177-2255","","166 Hague St.","","Jacksonville","","SC","","15984","","False",""
"In1","801-56-5925","Watkins","","Whitney","","687393-1820","","40 Oak Avenue","","Cincinnati","","WY","","91599","","True",""
"In1","801-97-3390","Camacho","","Cornelius","","733185-6646","","76 Green Second Boulevard","","Rochester","","MT","","61158","","False",""
"In1","803-62-6221","Davila","","Susan","","832-597-2773","","748 Milton Parkway","","Des Moines","","NE","","76138","","False",""
"In1","803-97-1368","Fernandez","","Alisa","","208-415-0712","","903 Oak Way","","<NULL>","","PA","","14399","","True",""
"In1","804-02-4753","Esparza","","Jonathon","","366066-3453","","74 Old Road","","<NULL>","","ND","","27352","","False",""
"In1","804-25-9793","Downs","","Randolph","","832-964-1391","","34 North Rocky First Street","","Washington","","NE","","45594","","False",""
"In1","804-80-6774","Cervantes","","Jake","","377211-1795","","30 Cowley Way","","Charlotte","","LA","","66875","","True",""
"In1","805-65-3090","Atkins","","Candy","","711193-2668","","736 Old Blvd.","","Austin","","NH","","99041","","False",""
"In1","806-68-3198","Pearson","","Marla","","213-0088119","","314 First Road","","New Orleans","","NM","","40349","","False",""
"In1","807-19-8081","Nicholson","","Shanda","","646344-2771","","311 Cowley Parkway","","Sacramento","","NV","","75614","","False",""
"In1","807-68-2938","Becker","","Larry","","776-0437563","","346 White Milton Parkway","","Kansas","","MS","","47913","","False",""
"In1","807-79-2613","Williams","","Molly","","408856-6113","","910 Rocky First Road","","Houston","","NM","","85090","","True",""
"In1","808-50-3963","Higgins","","Tabatha","","259-299-6314","","35 South Green Fabien Freeway","","Denver","","IL","","33055","","False",""
"In1","809-31-7470","Holloway","","Shonda","","0894306854","","971 First Freeway","","San Diego","","OH","","04119","","True",""
"In1","812-29-6757","Terrell","","Virginia","","519-900-0626","","741 White Cowley Boulevard","","Buffalo","","NH","","03695","","True",""
"In1","813-32-3444","Ibarra","","Sidney","","871-1945407","","515 Rocky Clarendon Road","","Jackson","","<NULL>","","67411","","True",""
"In1","815-13-6413","Mc Clure","","Gordon","","065-0925257","","341 Hague Road","","Montgomery","","PA","","52959","","True",""
"In1","815-66-1772","Medina","","Kirsten","","248985-1313","","204 North Green Second Road","","St. Paul","","CT","","98840","","True",""
"In1","815-84-1612","Johns","","Carol","","650022-2434","","763 Fabien Avenue","","San Francisco","","IA","","48768","","True",""
"In1","821-03-6413","Mitchell","","Cary","","955-3805357","","617 South Green Milton Freeway","","New Orleans","","IN","","66023","","False",""
"In1","822-27-9786","Lynch","","Steven","","771395-9280","","87 White Second Parkway","","Cincinnati","","ND","","18446","","True",""
"In1","822-68-0709","Short","","Rogelio","","155-191-1246","","665 Green Clarendon Road","","Glendale","","TN","","06476","","True",""
"In1","823-82-4250","Peterson","","Steven","","302793-4443","","824 Second Freeway","","Norfolk","","WY","","06427","","False",""
"In1","827-11-1157","Ayers","","Joel","","206-2275215","","900 Green Fabien Avenue","","Shreveport","","GA","","63553","","True",""
"In1","830-49-6002","Hansen","","Arlene","","616677-4199","","926 Nobel St.","","Akron","","IN","","31482","","True",""
"In1","830-70-2466","Goodman","","Oscar","","4077366139","","489 Second Boulevard","","St. Petersburg","","IA","","85640","","False",""
"In1","831-24-2905","Palmer","","Whitney","","476506-3712","","97 East Clarendon Avenue","","Greensboro","","MO","","61805","","True",""
"In1","832-53-6373","Livingston","","Ralph","","859-7198287","","13 Hague Drive","","Baltimore","","NE","","37349","","True",""
"In1","834-53-6093","Frazier","","Tony","","249-1371785","","130 North Rocky Oak Road","","Greensboro","","MD","","03785","","True",""
"In1","834-53-9676","Silva","","Lorenzo","","949353-0836","","317 Green Nobel Drive","","Phoenix","","SC","","92341","","False",""
"In1","835-38-7265","Sloan","","Alvin","","376-681-0520","","91 Clarendon St.","","San Francisco","","OH","","21419","","False",""
"In1","835-92-0746","Villanueva","","Charity","","786-2777157","","813 North Cowley St.","","Dallas","","UT","","13579","","False",""
"In1","835-98-9930","Hayes","","Ruben","","562972-8611","","899 North First St.","","Nashville","","UT","","96390","","True",""
"In1","836-82-4668","Gaines","","Jeannette","","361026-6121","","311 New Parkway","","Indianapolis","","KY","","53569","","True",""
"In1","837-95-3437","Glenn","","Erica","","685-532-3052","","533 First Parkway","","Louisville","","MS","","05472","","True",""
"In1","839-58-6888","Valentine","","Fernando","","816-3678019","","80 Hague Freeway","","Santa Ana","","VA","","82442","","False",""
"In1","839-66-8694","Butler","","Jodie","","9131229017","","192 New St.","","Mobile","","OR","","52702","","True",""
"In1","840-45-3652","Hutchinson","","Beverly","","406-288-4132","","794 Green New Avenue","","Minneapolis","","VA","","76491","","True",""
"In1","841-15-4992","Hardy","","Xavier","","1878933281","","191 Cowley St.","","Norfolk","","NV","","72134","","True",""
"In1","841-25-4514","Woodard","","Alice","","430-8938409","","27 Cowley Street","","Mesa","","UT","","85088","","False",""
"In1","843-84-1379","Mc Daniel","","Adrian","","657-510-1118","","65 White Old Street","","Los Angeles","","NY","","39728","","True",""
"In1","844-47-1743","Rivers","","Todd","","6259253841","","427 North Rocky Cowley Freeway","","Tampa","","MO","","04699","","False",""
"In1","845-49-2679","Hurley","","Marianne","","135-632-2171","","592 Hague Street","","Denver","","NM","","66863","","False",""
"In1","847-01-7025","Brewer","","Francisco","","441-067-9994","","598 Green Hague St.","","Pittsburgh","","IN","","73747","","True",""
"In1","847-32-7713","Taylor","","Cari","","577-0879547","","591 Nobel Drive","","Colorado","","NM","","67749","","True",""
"In1","849-56-6228","Jimenez","","Shelley","","197998-3587","","74 Green Clarendon Freeway","","Louisville","","UT","","37583","","False",""
"In1","850-62-8681","Hurst","","Samuel","","827126-4244","","35 Hague Way","","Tulsa","","CT","","60420","","False",""
"In1","851-53-9316","Mata","","Joe","","312-5573865","","40 West Green Milton Boulevard","","<NULL>","","SD","","20654","","True",""
"In1","851-62-9087","Dickerson","","Jacquelyn","","532-191-3104","","114 Green Hague Blvd.","","Tampa","","NY","","04258","","False",""
"In1","852-81-0205","Hammond","","Edith","","302-965-2636","","58 First Freeway","","Indianapolis","","OH","","27566","","True",""
"In1","854-15-1305","Mack","","Stephen","","303-321-2747","","60 White Second Road","","New Orleans","","MA","","51698","","False",""
"In1","854-96-1039","Wilson","","Felix","","1270707015","","25 South Second Avenue","","Jacksonville","","<NULL>","","54751","","False",""
"In1","855-41-5558","Colon","","Myra","","402523-6700","","931 Green Nobel Avenue","","Las Vegas","","SD","","43874","","True",""
"In1","858-04-1916","Cohen","","Gwendolyn","","347-7651787","","18 North Second Freeway","","San Francisco","","OK","","06013","","False",""
"In1","858-17-6193","Jones","","Lesley","","250-415-3773","","70 Hague Freeway","","Philadelphia","","DE","","40552","","False",""
"In1","860-02-0908","Avila","","Sheri","","4091303900","","886 Hague St.","","Richmond","","CT","","95868","","True",""
"In1","860-04-3171","Davenport","","Jacquelyn","","3005610604","","218 Fabien Parkway","","Seattle","","MS","","61890","","False",""
"In1","861-75-8013","Bender","","Sheldon","","7767766169","","780 West Hague Boulevard","","Stockton","","DE","","58649","","False",""
"In1","862-89-7926","Sanford","","Marcie","","458775-9079","","94 North White Fabien Street","","Rochester","","NJ","","39765","","True",""
"In1","863-73-4400","Phelps","","Isabel","","2005356887","","216 North Cowley Drive","","Colorado","","MA","","81190","","True",""
"In1","864-92-8502","Mahoney","","Monique","","042-962-9424","","63 Rocky Second St.","","Portland","","MD","","77632","","False",""
"In1","868-80-7355","Waters","","Donald","","120471-0403","","985 Cowley Boulevard","","Fresno","","UT","","62909","","False",""
"In1","869-01-2785","Fletcher","","Bernard","","059-122-2802","","71 Fabien Avenue","","Las Vegas","","OH","","35932","","False",""
"In1","869-39-1007","Armstrong","","Lonnie","","122057-0913","","418 New Drive","","New York","","FL","","29015","","False",""
"In1","871-28-1087","Golden","","Deana","","493107-9865","","286 New St.","","Colorado","","MI","","85247","","True",""
"In1","872-32-2096","Mccoy","","Joann","","4682970710","","73 Green New Avenue","","Virginia Beach","","MO","","10378","","True",""
"In1","872-36-3993","Todd","","Marco","","9545208415","","60 South Milton Boulevard","","Garland","","OH","","88414","","False",""
"In1","874-15-2256","Dyer","","Candice","","368229-7902","","<NULL>","","San Jose","","CA","","75644","","True",""
"In1","875-25-0651","Potts","","Ross","","903288-5858","","642 South Rocky New Avenue","","Miami","","NH","","23149","","False",""
"In1","876-96-8050","Gomez","","Jerome","","292552-6540","","504 West White Cowley Blvd.","","St. Louis","","ME","","16348","","False",""
"In1","877-23-8818","Hale","","Nichole","","244-526-3083","","79 Milton Parkway","","Tulsa","","MD","","62879","","False",""
"In1","878-08-0463","Poole","","Ralph","","938-9887381","","610 Milton Street","","Norfolk","","NM","","83991","","False",""
"In1","881-55-3165","Swanson","","Jarrod","","452003-5736","","406 Old Freeway","","St. Paul","","WV","","16322","","True",""
"In1","882-19-7812","Russo","","Diana","","3026968156","","925 North Green Hague Freeway","","Tucson","","MD","","99414","","False",""
"In1","882-76-0320","Singleton","","Jess","","9433076011","","501 First Way","","Austin","","RI","","67292","","True",""
"In1","882-89-0941","Campbell","","Nelson","","116-563-0063","","709 North White Clarendon Freeway","","Las Vegas","","PA","","38750","","False",""
"In1","883-11-9318","Frazier","","Karen","","605284-0932","","56 Cowley Avenue","","Houston","","DE","","16730","","False",""
"In1","883-56-9772","Cabrera","","Marie","","2033314067","","59 Second Blvd.","","Lincoln","","AZ","","79181","","True",""
"In1","883-71-7053","Harris","","Sarah","","376643-7391","","846 East Rocky Clarendon Avenue","","Newark","","OR","","89067","","False",""
"In1","883-76-6739","Huang","","Aisha","","7640877972","","10 Rocky First Road","","Spokane","","NC","","56997","","True",""
"In1","884-09-4220","Marks","","Virgil","","115-106-3375","","14 Green First Road","","St. Petersburg","","NV","","40724","","False",""
"In1","886-75-9197","Rowland","","Kerrie","","135-6011908","","96 Green First Road","","Madison","","IL","","03480","","True",""
"In1","888-20-3042","Boyer","","Dexter","","8145661270","","118 White Clarendon St.","","Santa Ana","","MA","","64623","","True",""
"In1","890-37-9203","Wade","","Kerrie","","023092-2974","","526 Cowley Street","","Kansas","","AZ","","00669","","False",""
"In1","890-45-2727","Rivers","","Lorena","","867453-7165","","57 Second Blvd.","","Jersey","","OH","","89943","","False",""
"In1","892-36-2995","Mc Daniel","","Theresa","","2907197755","","18 North New Boulevard","","St. Petersburg","","GA","","65095","","True",""
"In1","892-79-3877","Williamson","","Terri","","218-2692798","","45 Hague Boulevard","","Birmingham","","ID","","45535","","True",""
"In1","895-94-0045","Schneider","","Sherry","","088-1448882","","448 White Milton Way","","Des Moines","","OR","","30363","","False",""
"In1","897-00-5635","Hodges","","Ronald","","049-893-0116","","931 Green Oak Road","","Wichita","","UT","","86036","","True",""
"In1","897-66-7981","Rubio","","Miguel","","8744529685","","383 Cowley Parkway","","Jersey","","KY","","05443","","True",""
"In1","897-83-7776","Krueger","","Shelby","","169-7641832","","555 West Fabien Parkway","","Corpus Christi","","CT","","72445","","True",""
"In1","898-10-5042","Novak","","Donna","","390-9159804","","970 North Old Boulevard","","Wichita","","ND","","97075","","True",""
"In1","898-39-7882","Matthews","","Jasmine","","014-2592060","","46 Rocky Cowley Boulevard","","Atlanta","","AL","","38991","","False",""
"In1","900-07-1733","Chang","","Kristine","","131-729-7985","","779 White Oak Road","","Columbus","","SD","","21100","","True",""
"In1","900-12-8837","Cline","","Mario","","893214-9244","","82 Rocky New Boulevard","","Dallas","","SC","","15551","","True",""
"In1","900-36-7606","Acosta","","Colby","","0423856560","","922 White First St.","","Riverside","","PA","","09996","","True",""
"In1","901-10-6072","Frye","","Jacob","","5207203312","","94 South Cowley Boulevard","","Milwaukee","","RI","","53239","","True",""
"In1","901-30-4075","Glover","","Alisha","","591-2366797","","281 Old Freeway","","Madison","","AR","","22909","","True",""
"In1","902-01-0644","Brandt","","Omar","","003984-6704","","83 Old St.","","Corpus Christi","","WI","","69684","","False",""
"In1","904-82-4475","Barnes","","Kyle","","054-245-8131","","14 Oak Street","","Fort Wayne","","DE","","09477","","True",""
"In1","905-19-5094","Charles","","Peggy","","6051151871","","49 Rocky Fabien St.","","San Antonio","","OR","","93077","","False",""
"In1","906-90-2840","Gomez","","Gail","","174-063-5432","","57 Green Clarendon Parkway","","San Diego","","MO","","71739","","False",""
"In1","908-54-3048","Park","","Martin","","676198-3172","","800 East Green Second Avenue","","Jacksonville","","MD","","42369","","True",""
"In1","910-51-6999","Reese","","Eva","","392-1758662","","139 East Green Nobel Blvd.","","Memphis","","GA","","36983","","True",""
"In1","910-52-0099","Curtis","","Felicia","","512-783-5035","","980 West Nobel Drive","","Atlanta","","AK","","69615","","True",""
"In1","911-23-5435","Avila","","Gilberto","","499-905-8958","","867 Fabien Freeway","","Fort Wayne","","WY","","83151","","True",""
"In1","911-90-1790","Shea","","Gena","","570-7431737","","38 North Hague Freeway","","Nashville","","AR","","61347","","False",""
"In1","911-94-9470","Garrett","","Caroline","","372-3509320","","477 East Rocky Clarendon Blvd.","","Baton Rouge","","NY","","27107","","True",""
"In1","912-91-1650","Meyer","","Francisco","","836-7497969","","83 White Second Freeway","","Greensboro","","LA","","94202","","False",""
"In1","914-34-3278","Conley","","Darrick","","775214-8938","","962 North Hague Freeway","","Los Angeles","","<NULL>","","63088","","True",""
"In1","914-76-1444","Stark","","Danny","","5910959395","","91 White Fabien Drive","","Anchorage","","UT","","93151","","True",""
"In1","916-14-1175","Bullock","","Malcolm","","577-6543790","","965 Cowley Street","","Dayton","","AZ","","84696","","True",""
"In1","916-93-6342","Parker","","Marla","","024-7857596","","978 South Milton Boulevard","","Milwaukee","","MD","","46957","","True",""
"In1","918-30-6376","Fuller","","Jocelyn","","078747-8016","","323 Green Cowley Boulevard","","Spokane","","SC","","11153","","True",""
"In1","918-38-2843","Delgado","","Andrea","","211-910-8609","","96 New Street","","Arlington","","AK","","10947","","False",""
"In1","920-15-7822","Ruiz","","Monica","","623-5782898","","42 Second Street","","San Antonio","","PA","","26791","","False",""
"In1","920-44-2435","Navarro","","Charles","","003329-9163","","11 White Fabien Avenue","","St. Louis","","HI","","89347","","True",""
"In1","921-78-5294","Garrett","","Jim","","165739-2734","","88 Nobel Parkway","","San Antonio","","OR","","13815","","True",""
"In1","923-95-1722","Mckee","","Veronica","","068130-4850","","808 Hague Boulevard","","Yonkers","","ME","","85123","","True",""
"In1","923-97-1510","Monroe","","Clifford","","817677-8402","","664 First Avenue","","Dallas","","OK","","84427","","False",""
"In1","924-95-7810","Santiago","","Sherri","","522-2208500","","65 White Oak St.","","Fort Wayne","","PA","","59274","","False",""
"In1","928-24-4124","Owens","","Gina","","357-5386347","","122 Clarendon Road","","Corpus Christi","","RI","","21657","","True",""
"In1","928-41-0940","Wilkerson","","Alicia","","155-154-4555","","94 Green Old Boulevard","","Mesa","","FL","","36887","","True",""
"In1","929-32-9841","Franco","","Isabel","","525896-6859","","592 White Hague Freeway","","Colorado","","AL","","35573","","True",""
"In1","931-30-0760","Kaufman","","Salvatore","","430-8947072","","618 Oak Avenue","","Dallas","","TX","","71695","","True",""
"In1","931-73-9626","Blake","","Betsy","","476041-5407","","40 North Second Drive","","Houston","","KY","","28005","","True",""
"In1","933-48-7728","Stein","","Todd","","010287-5793","","495 West Nobel Parkway","","Jackson","","OH","","75733","","True",""
"In1","934-10-3289","Sparks","","Liza","","9971570777","","533 North Second Road","","Detroit","","MI","","85006","","False",""
"In1","934-30-1352","Woodard","","Dan","","147-202-4397","","836 White Nobel Parkway","","Wichita","","HI","","63565","","True",""
"In1","934-40-0745","Schmitt","","Arnold","","1354290964","","65 Green Fabien St.","","Buffalo","","NH","","74567","","False",""
"In1","935-61-0028","Mata","","Nicolas","","666-148-0604","","70 South Oak Way","","Aurora","","WV","","31155","","True",""
"In1","937-31-1446","Maldonado","","Greg","","182413-2756","","571 Oak Street","","Fremont","","FL","","79805","","True",""
"In1","938-16-1241","Rose","","Cristina","","9053522151","","47 North Nobel Drive","","Montgomery","","KY","","45477","","False",""
"In1","939-56-8639","Donovan","","Leroy","","608787-5674","","589 Milton Blvd.","","Raleigh","","NJ","","96197","","False",""
"In1","940-01-3048","Duarte","","Dean","","278556-7912","","42 Cowley Way","","Des Moines","","MD","","75324","","True",""
"In1","940-05-3547","Jefferson","","Melvin","","356-7425613","","319 Rocky First Way","","Detroit","","ID","","17747","","True",""
"In1","941-82-0779","Clements","","Lorraine","","748754-8907","","<NULL>","","<NULL>","","TX","","28097","","True",""
"In1","944-42-5925","Sharp","","Angelica","","182-121-7946","","499 South Green New Way","","Oakland","","OK","","55363","","False",""
"In1","944-95-1816","Walton","","Jamie","","463586-2337","","909 Rocky Second Freeway","","Wichita","","GA","","41139","","False",""
"In1","946-05-1328","Velazquez","","Sheila","","199067-6009","","297 Green Milton Boulevard","","Oklahoma","","NJ","","36708","","False",""
"In1","948-15-8197","Benjamin","","Alexandra","","596-750-5783","","63 Cowley Blvd.","","Minneapolis","","KS","","22392","","False",""
"In1","950-28-7917","Hunter","","Scott","","8810459620","","17 New Freeway","","Colorado","","<NULL>","","10148","","False",""
"In1","953-57-3446","Love","","Dorothy","","745004-9701","","64 East Fabien Drive","","Mobile","","SD","","30554","","True",""
"In1","955-16-4210","Pham","","Trevor","","079192-2502","","79 Old Street","","Garland","","ND","","77178","","True",""
"In1","955-90-2791","Khan","","Norman","","6373150095","","42 Rocky New Parkway","","Chicago","","NV","","57763","","True",""
"In1","958-11-1429","Sexton","","Ellen","","845-9191354","","512 Oak Boulevard","","Montgomery","","MN","","47769","","True",""
"In1","959-14-7180","Irwin","","Melody","","776-8649804","","81 Fabien St.","","Toledo","","KS","","20923","","False",""
"In1","959-73-6815","Shelton","","Louis","","502596-9041","","72 Second Street","","Des Moines","","OK","","75686","","True",""
"In1","959-81-0257","Houston","","Jack","","767-2833779","","563 Rocky Milton Blvd.","","Yonkers","","ME","","70940","","False",""
"In1","960-27-5231","Mc Mahon","","Allison","","5220967068","","64 Fabien Drive","","Mesa","","NM","","33305","","True",""
"In1","961-74-1618","Atkins","","Jamey","","614-461-9774","","25 White Milton Drive","","Bakersfield","","WA","","38996","","True",""
"In1","964-17-3559","Shaffer","","Nicolas","","277-325-1606","","916 North Fabien Avenue","","Columbus","","CA","","82461","","True",""
"In1","964-28-3993","Munoz","","Rocky","","009-560-0606","","38 South White Second Street","","Milwaukee","","SD","","83838","","False",""
"In1","964-67-8488","Phelps","","Sherman","","415-121-7674","","178 Green Milton Parkway","","Columbus","","NC","","69234","","False",""
"In1","966-20-7473","Lucas","","Jimmie","","229-1665022","","73 Rocky Clarendon Parkway","","Arlington","","IA","","69621","","False",""
"In1","967-35-1015","Mccarty","","Scot","","065-747-6569","","11 West Nobel Parkway","","San Francisco","","AR","","51431","","False",""
"In1","968-37-8950","Fowler","","Cheryl","","841-510-2213","","615 South Rocky First Boulevard","","Tampa","","NV","","70025","","True",""
"In1","970-48-5487","Valentine","","Mary","","6737943466","","293 Green Old Street","","Stockton","","WV","","15483","","True",""
"In1","970-83-5730","Wang","","Andrea","","985-7439138","","54 Green New Avenue","","Raleigh","","RI","","43459","","True",""
"In1","971-68-3219","Hayes","","Rex","","466-139-4898","","133 Rocky Nobel Road","","Louisville","","CO","","78252","","True",""
"In1","972-69-4030","Browning","","Ross","","9011576559","","41 White Fabien Avenue","","Rochester","","ID","","<NULL>","","False",""
"In1","974-48-9149","Mccoy","","Shauna","","3829379432","","875 First Drive","","Philadelphia","","WA","","67286","","True",""
"In1","975-06-0011","Small","","Charles","","934-361-9401","","288 Milton Parkway","","Fort Wayne","","SD","","77764","","False",""
"In1","975-11-3378","Brandt","","Wayne","","618-3818000","","27 West Green Old Parkway","","Newark","","ME","","09229","","True",""
"In1","975-59-4709","Gray","","Yvonne","","763-104-0225","","24 Rocky Second Freeway","","Arlington","","AR","","22904","","False",""
"In1","975-82-6656","Zhang","","Kendrick","","102-3138560","","886 West Oak Blvd.","","Pittsburgh","","LA","","70903","","False",""
"In1","978-28-4691","Mccall","","Terry","","4295175061","","69 Green Clarendon Drive","","Boston","","NM","","62576","","True",""
"In1","978-51-7372","Small","","Antonio","","946274-1160","","93 New St.","","Honolulu","","NY","","54461","","True",""
"In1","979-11-6846","Bradshaw","","Marjorie","","382-5630434","","42 Hague St.","","Corpus Christi","","PA","","02257","","True",""
"In1","979-52-6650","Terrell","","Gilberto","","026-882-8742","","902 White Oak Blvd.","","Honolulu","","NH","","76371","","True",""
"In1","981-57-6922","Rivas","","Leigh","","0840152591","","566 West Green Nobel St.","","Santa Ana","","MD","","17732","","False",""
"In1","981-94-6955","Krueger","","Dina","","2627326959","","62 East Rocky New Drive","","Houston","","MN","","50870","","True",""
"In1","982-59-0513","Murray","","Virginia","","743785-1842","","249 South Hague Blvd.","","Anchorage","","HI","","00190","","False",""
"In1","984-11-2324","Cabrera","","Vernon","","711-619-1261","","321 Green Nobel Freeway","","Jackson","","GA","","11248","","False",""
"In1","984-71-6608","Maxwell","","Aisha","","4895883559","","568 Second Parkway","","Norfolk","","NH","","98849","","False",""
"In1","984-89-8983","Winters","","Jorge","","250-0357306","","36 South Green First Blvd.","","El Paso","","KY","","40359","","True",""
"In1","986-86-5250","Hubbard","","Guadalupe","","5576489040","","377 Fabien Boulevard","","Pittsburgh","","NY","","16410","","False",""
"In1","987-22-2817","Miller","","Megan","","078-032-6702","","77 South Fabien Freeway","","Louisville","","AZ","","76110","","True",""
"In1","989-31-3825","Johnston","","Roland","","7387847715","","<NULL>","","Rochester","","FL","","79511","","True",""
"In1","990-26-6974","Wade","","Kristie","","185-496-2809","","90 North Nobel Boulevard","","Akron","","DE","","75714","","True",""
"In1","990-64-0735","Doyle","","Shelia","","527246-2009","","883 New Avenue","","Pittsburgh","","MO","","80993","","True",""
"In1","991-05-1443","Levy","","Monte","","848-0884501","","63 White Second Blvd.","","Anchorage","","KS","","01189","","False",""
"In1","991-94-7876","David","","Jami","","153-542-5968","","716 Rocky New Freeway","","Omaha","","FL","","66552","","True",""
"In1","993-78-5423","Dunlap","","Abel","","390-107-6009","","966 Cowley Freeway","","Des Moines","","NC","","37687","","False",""
"In1","993-90-9019","Ali","","Jasmine","","267-7372853","","79 West New Road","","Des Moines","","PA","","54989","","True",""
"In1","995-43-0966","Newman","","Anna","","237061-8765","","428 Rocky New Freeway","","Long Beach","","AL","","05718","","False",""
"In1","998-12-5347","Velazquez","","Daniel","","1212126320","","694 South Fabien Avenue","","El Paso","","FL","","10154","","True",""
"In1","998-16-8105","Kaufman","","Nikki","","110605-1415","","363 Green Nobel St.","","Richmond","","GA","","92864","","False",""
"In1","998-96-0909","Trujillo","","Perry","","176-849-8171","","574 Rocky Hague Way","","Toledo","","MA","","81639","","True",""
"In1","999-07-5161","Franco","","Lakesha","","733-2574983","","41 Oak Road","","San Jose","","SC","","86045","","False",""
"In1","999-34-2854","Marsh","","Sophia","","855539-5559","","82 North Rocky Oak Parkway","","Tacoma","","UT","","83310","","True",""
"In1","999-86-4867","Mc Knight","","Russell","","684811-0635","","<NULL>","","Austin","","MO","","16575","","False",""
"In1","999-88-1684","Stokes","","Autumn","","465-098-2764","","82 East Nobel St.","","Fort Wayne","","MA","","94828","","False",""
